FMID,MarketName,Website,Street,City,County,State,Zip,Schedule,x,y,Location,Credit,WIC,WICcash,SFMNP,SNAP,Bakedgoods,Cheese,Crafts,Flowers,Eggs,Seafood,Herbs,Vegetables,Honey,Jams,Maple,Meat,Nursery,Nuts,Plants,Poultry,Prepared,Soap,Trees,Wine,updateTime
22001276,0.4 French Broad Food Coop Arts & Farms Market,,76 Biltmore Ave. next to the French Broad Food Co-op.,Asheville,Buncombe,North Carolina,28801,,-82.5502,35.5919,,N,N,N,N,N,N,N,N,N,N,N,N,N,N,N,N,N,N,N,N,N,N,N,N,N,2009
1003197,0.4 Asheville City Market,http://www.asapconnections.org/citymarket.html,161 South Charlotte St.,Asheville,Buncombe,North Carolina,28801,April - November Saturday 8:00 AM to 1:00 PM December Saturday 10:00 AM to 1:00 PM,-82.5486,35.5937,Local government building grounds,Y,N,N,Y,Y,Y,Y,Y,Y,Y,Y,Y,Y,Y,Y,Y,Y,Y,Y,Y,Y,Y,Y,Y,N,5/15/2012 11:00:27 AM
22002938,0.5 Greenlife Sunday Afternoon Local Market,http://www.greenlifegrocery.com,70 Merrimon Avenue,Asheville,Buncombe,North Carolina,28801,,-82.5542,35.6024,,N,N,N,N,N,N,N,N,N,N,N,N,N,N,N,N,N,N,N,N,N,N,N,N,N,2009
22002836,1.3 Mission Hospital Tailgate Market,http://www.madisonfarms.org,509 Biltmore Avenue,Asheville,Madison,North Carolina,28753,,-82.5492,35.5766,,N,N,N,N,N,N,N,N,N,N,N,N,N,N,N,N,N,N,N,N,N,N,N,N,N,2009
1002502,1.5 North Asheville Tailgate Market,http://www.northashevilletailgatemarket.org,1 University Heights,Asheville,Buncombe,North Carolina,28804,April - November Saturday 8:00 AM to 12:00 PM,-82.5664,35.6149,Federal/State government building grounds,Y,N,N,N,Y,Y,Y,Y,Y,Y,Y,Y,Y,Y,Y,N,Y,Y,Y,Y,Y,Y,Y,Y,N,5/7/2012 8:06:34 PM
22003467,2.4 West Asheville Tailgate Market,,757 Haywood Road,West Asheville,Buncombe,North Carolina,28806,,-82.5937,35.5783,,N,N,N,N,N,N,N,N,N,N,N,N,N,N,N,N,N,N,N,N,N,N,N,N,N,2009
1004234,2.9 Oakley Farmers Market,http://oakleyfarmersmarket.com,607 Fairview Road,Asheville,Buncombe,North Carolina,28803,May - October Thursday 2:00 PM to 6:00 PM,-82.5186414,35.5654525,"Faith-based institution (e.g., church, mosque, synagogue, temple)",Y,N,N,N,N,Y,Y,Y,N,Y,N,Y,Y,Y,Y,N,N,N,Y,Y,N,N,Y,N,N,7/9/2012 12:22:03 PM
21002893,3.6 WNC Farmers Market,http://wncfarmersmarket.org,570 Brevard Rd,Asheville,Buncombe,North Carolina,28806,January - December Monday - Sunday 8:00 am to 5:00 pm,-82.5978,35.5548,Federal/State government building grounds,N,N,N,N,N,Y,Y,Y,N,N,N,N,Y,Y,Y,N,Y,N,N,Y,N,Y,N,N,N,4/20/2011 1:20:33 PM
22003401,5.0 Victory Tailgate Market,,1329 Tunnel Road,Asheville,Buncomb,North Carolina,28805,,-82.4671,35.5836,,N,N,N,N,N,N,N,N,N,N,N,N,N,N,N,N,N,N,N,N,N,N,N,N,N,2009
22003050,5.3 Riceville Tailgate Market,,Riceville Community Center Parking Lot,Riceville,Buncombe,North Carolina,28805,,-82.4725,35.6309,,N,N,N,N,N,N,N,N,N,N,N,N,N,N,N,N,N,N,N,N,N,N,N,N,N,2009
1002504,6.7 Weaverville Tailgate Market,http://weavervilletailgate.org/,60 Lakeshore Drive,Weaverville,Buncombe,North Carolina,28787,April - October Wednesday 2:30 PM to 6:30 PM,-82.56912,35.69073,,N,N,N,N,N,Y,Y,Y,Y,Y,Y,Y,Y,Y,Y,N,Y,Y,N,Y,Y,Y,Y,Y,N,5/7/2012 8:14:22 PM
22001986,6.8 Fairview Tailgate Market,,594 Old Charlotte Hwy,Fairview,Buncombe,North Carolina,28732,,-82.4505,35.5462,,N,N,N,N,N,N,N,N,N,N,N,N,N,N,N,N,N,N,N,N,N,N,N,N,N,2009
1001384,13.3 Black Mountain Tailgate Market,http://www.blackmountaintailgatemarket.org,130 Montreat Road,Black Mountain,Buncombe,North Carolina,28711,May - November Saturday 9:00 AM to 12:00 PM,-82.3217446,35.6208614,"Faith-based institution (e.g., church, mosque, synagogue, temple)",Y,N,N,N,N,Y,Y,Y,Y,Y,Y,Y,Y,Y,Y,Y,Y,Y,Y,Y,Y,Y,Y,N,N,4/29/2012 11:36:58 AM
22002896,13.4 Big Ivy Tailgate Market,,540 Dillingham Rd,Barnardsville,Buncombe,North Carolina,28709,,-82.4319,35.7599,,N,N,N,N,N,N,N,N,N,N,N,N,N,N,N,N,N,N,N,N,N,N,N,N,N,2009
1000770,14.3 Mills River Farmers' Market,,Highway 280 G& B Energy Center,MIlls River,Henderson,North Carolina,28759,May - October Saturday 8:00 AM to 12:00 PM,-82.5668,35.3884,Private business parking lot,N,N,N,N,N,Y,Y,Y,Y,Y,Y,Y,Y,Y,Y,Y,Y,Y,Y,Y,Y,Y,Y,Y,N,4/26/2012 1:27:10 PM
22000735,15.6 Market on South Main,,133 S. Main,Marshall,Madison,North Carolina,28753,,-82.6815,35.7965,,N,N,N,N,N,N,N,N,N,N,N,N,N,N,N,N,N,N,N,N,N,N,N,N,N,May 21 2010 1:50PM
22002766,15.7 Sundays on the Island,,Blanahasset Island,Marshall,Madison,North Carolina,,,-82.684,35.7973,,N,N,N,N,N,N,N,N,N,N,N,N,N,N,N,N,N,N,N,N,N,N,N,N,N,2009
1001165,16.0 Madison County Farmers & Artisans Market,http://www.marshillmarket.org,Hwy 213,Mars Hill,Madison,North Carolina,28754,April - October Saturday 9:00 AM to 1:00 PM,-82.55427,35.8264,Educational institution,N,N,N,N,Y,Y,Y,Y,Y,Y,N,Y,Y,Y,Y,N,Y,Y,N,Y,Y,N,Y,N,N,4/26/2012 11:07:54 PM
22001679,16.5 Canton Farmers Market,,58 Park St. across the street from museum,Canton,Haywood,North Carolina,28716,,-82.8397,35.5325,,N,N,N,N,N,N,N,N,N,N,N,N,N,N,N,N,N,N,N,N,N,N,N,N,N,2009
22003030,19.8 Hendersonville Community Coop Tailgate Market,,On Old Spartanburg Hwy between Hwy 25 and 176,Hendersonville,Henderson,North Carolina,28792,,-82.461,35.3187,,N,N,N,N,N,N,N,N,N,N,N,N,N,N,N,N,N,N,N,N,N,N,N,N,N,2009
22003031,20.1 Hendersonville Curb Market,http://www.curbmarket.com,"Church St.(US 25 South), directly across from the old courthouse",Hendersonville,Henderson,North Carolina,,,-82.461,35.3142,,N,N,N,N,N,N,N,N,N,N,N,N,N,N,N,N,N,N,N,N,N,N,N,N,N,2009
1004540,23.3 Flat Rock Tailgate Market,,2720 Greenville Hwy.,Flat Rock,Henderson,North Carolina,28731,May - October Thursday 3:00 PM to 6:00 PM,-82.4413145,35.2707502,Private business parking lot,N,N,N,N,N,Y,Y,N,Y,Y,Y,Y,Y,Y,Y,N,Y,Y,N,Y,Y,N,Y,Y,N,6/1/2012 10:33:02 AM
22003278,25.2 Waynesville Tailgate Market,,171 Legion Dr.,Waynesville,Haywood,North Carolina,28786,,-82.9868,35.4924,,N,N,N,N,N,N,N,N,N,N,N,N,N,N,N,N,N,N,N,N,N,N,N,N,N,2009
1002033,25.4 Haywood's Historic Farmers Market,http://waynesvillefarmersmarket.com,250 Pigeon Street,Waynesville,Haywood,North Carolina,28786,"April - October Wednesday 8:00 AM to 12:00 PM, Saturday 8:00 AM to 12:00 PM, (Most Saturdays we have local live music--check our website for our once a month ""party' days--cooking demos & special events )",-82.987375,35.486742,Private business parking lot,Y,Y,N,Y,N,Y,N,Y,Y,Y,Y,Y,Y,Y,Y,N,Y,Y,Y,Y,Y,N,Y,Y,N,5/1/2012 3:42:27 PM
22002897,26.5 Yancey County Farmers' Market,,10 South Main Street,Burnsville,Yancey,North Carolina,28714,,-82.2998,35.9166,,N,N,N,N,N,N,N,N,N,N,N,N,N,N,N,N,N,N,N,N,N,N,N,N,N,2009
21004848,26.9 Transylvania Tailgate Association,,190 E. Main Street,Brevard,Transylvania,North Carolina,28712,January - December Saturday 8:00 am to 12:00 pm,-82.7319,35.232,Private business parking lot,N,N,N,N,N,Y,Y,Y,Y,N,Y,Y,Y,Y,Y,N,Y,N,N,Y,N,Y,Y,N,N,5/5/2011 4:26:49 PM
21004344,27.2 Columbus Farmers' Market,http://www.polkcountyfarms.org,100 Irving Street,Saluda,Polk,North Carolina,,January - December,-82.3542,35.237,Local government building grounds,N,N,N,N,N,Y,Y,Y,Y,N,N,Y,Y,Y,Y,N,Y,N,N,Y,N,Y,Y,N,N,5/2/2011 2:52:11 PM
22003079,29.5 Maggie Valley Farmers Tailgate Market,,2701 Soco Road,Maggie Valley,Haywood,North Carolina,28751,,-83.0702,35.5126,,N,N,N,N,N,N,N,N,N,N,N,N,N,N,N,N,N,N,N,N,N,N,N,N,N,2009
22004102,30.3 Rockcastle County Farmers Market III,,Highway 25 South,Livingston,Rockcastle,Kentucky,40445,,-82.4745,35.1604,,N,N,N,N,N,N,N,N,N,N,N,N,N,N,N,N,N,N,N,N,N,N,N,N,N,2009
22002762,30.5 Spruce Pine Farmers Market,,Upper Street,Spruce Pine,Mitchell,North Carolina,28777,,-82.1087,35.8458,,N,N,N,N,N,N,N,N,N,N,N,N,N,N,N,N,N,N,N,N,N,N,N,N,N,2009
1002648,31.1 Columbus Tailgate Market,http://www.polkcountyfarms.org,"Columbus Courthouse, Route 108",Columbus,Polk,North Carolina,28722,April - November Saturday 8:00 AM to 12:00 PM,-82.19851,35.25146,Closed-off public street,Y,N,N,N,Y,Y,N,Y,Y,Y,N,Y,Y,Y,Y,N,Y,Y,N,Y,Y,N,Y,Y,N,5/9/2012 9:55:04 AM
21004344,31.1 Columbus Farmers' Market,http://www.polkcountyfarms.org,100 Courthouse Square,Columbus,Polk,North Carolina,28722,January - December Saturday 8:00 am to 11:30 am,-82.1987,35.2512,Local government building grounds,N,N,N,N,N,Y,Y,Y,Y,N,N,Y,Y,Y,Y,N,Y,N,Y,Y,N,Y,Y,N,N,5/2/2011 2:52:11 PM
22000278,31.3 Historic Marion Tailgate Market,,69 West Henderson Street,Marion,McDowell,North Carolina,28752,,-82.0091,35.6827,,N,N,N,N,N,N,N,N,N,N,N,N,N,N,N,N,N,N,N,N,N,N,N,N,N,Apr 19 2010 4:24PM
21004344,32.1 Columbus Farmers' Market,http://www.polkcountyfarms.org,100 Depot Street,Tryon,Polk,North Carolina,,January - December Thursday 4:00 pm to 6:30 pm,-82.2396,35.2089,Local government building grounds,N,N,N,N,N,Y,Y,Y,Y,N,N,Y,Y,Y,Y,N,Y,N,N,Y,N,Y,Y,N,N,5/2/2011 2:52:11 PM
22002895,36.7 Bakersville Farmers Market,,86 North Mitchell Avenue,Bakersviile,Mitchell,North Carolina,28705,,-82.1572,36.0159,,N,N,N,N,N,N,N,N,N,N,N,N,N,N,N,N,N,N,N,N,N,N,N,N,N,2009
22003284,36.8 Rural Resources Mobile Farmers Market,,,Greeneville,Greene,Tennessee,37743,,-82.8027,36.0878,,N,N,N,N,N,N,N,N,N,N,N,N,N,N,N,N,N,N,N,N,N,N,N,N,N,2009
22002482,37.2 Rutherfordton Farmers Market,,146 North Main St,Rutherfordton,Rutherford,North Carolina,,,-81.9573,35.3668,,N,N,N,N,N,N,N,N,N,N,N,N,N,N,N,N,N,N,N,N,N,N,N,N,N,2009
21002467,39.1 Erwin/Unicoi County Farmers Market,,Erwin Town Hall,Erwin,Unicoi,Tennessee,37601,January - December,-82.3984,36.1465,Local government building grounds,N,N,N,N,N,Y,N,Y,Y,N,N,Y,Y,Y,Y,N,N,N,N,Y,N,Y,N,N,N,4/19/2011 12:07:55 PM
22001925,39.9 Downtown Greenville Farmers Market,http://www.ruralresources.net,College Street,Greenville,Greene,Tennessee,37745,,-82.7629,36.1476,,N,N,N,N,N,N,N,N,N,N,N,N,N,N,N,N,N,N,N,N,N,N,N,N,N,2009
22003273,40.3 Rutherford County Farmers Market,,260 Fairground Road off Bus Highway 74,Spindale,Rutherford,North Carolina,28139,,-81.9068,35.349,,N,N,N,N,N,N,N,N,N,N,N,N,N,N,N,N,N,N,N,N,N,N,N,N,N,2009
21005648,40.6 Jackson County Farmers Market,,Railroad Ave.,Sylva,Jackson,North Carolina,28779,January - December Saturday 9:00 am to 12:00 pm,-83.2247,35.3742,Local government building grounds,N,N,N,N,N,Y,N,Y,Y,N,Y,Y,Y,Y,Y,N,Y,N,N,Y,N,Y,Y,N,N,5/25/2011 7:45:49 AM
1000930,42.4 Greeneville Farmers' Market,http://www.greenevillefarmersmarket.com,123 Fair Grounds Circle,Greeneville,Greene,Tennessee,37745,"May - October Wednesday 3:00 PM to 6:00 PM, Saturday 8:00 AM to 1:00 PM, (We are having our 2nd Annual Country Christmas Craft & Produce Fair Sept. 15th 8 am to 1 pm.)",-82.783957,36.179852,Other,Y,N,N,N,Y,Y,N,Y,Y,Y,N,Y,Y,Y,Y,N,Y,Y,N,Y,N,Y,Y,N,N,4/26/2012 2:24:46 PM
22001564,43.1 Cherokee Farmer's Tailgate Market,,Acquoni Road,Cherokee,Swain,North Carolina,28719,,-83.3117,35.4926,,N,N,N,N,N,N,N,N,N,N,N,N,N,N,N,N,N,N,N,N,N,N,N,N,N,2009
1004258,43.8 TRAVELERS REST COMMUNITY FARMERS MARKET,http://www.trfarmersmarket.com,1 Center Street,Travelers Rest,Greenville,South Carolina,29690,May - September Saturday 9:00 AM to 12:00 PM,-82.4436657,34.9676358,Other,N,N,N,N,N,Y,Y,N,N,Y,N,Y,Y,Y,Y,N,N,Y,N,Y,N,Y,Y,Y,N,5/29/2012 9:56:32 AM
22005278,43.8 Traveler's Rest Market,http://www.trfarmersmarket.org,1 Center St.,TravelerNULLs Rest,Greenville,South Carolina,29690,,-82.4437,34.9676,,N,N,N,N,N,N,N,N,N,N,N,N,N,N,N,N,N,N,N,N,N,N,N,N,N,2011
22004371,45.4 Cashiers Tailgate Market,,"in Downtown Cashier, heading west on Hwy 64 , In the parking lot of Cashiers Community Center between Cashiers and fire station",Cashier,Jackson County,North Carolina,,,-83.1013,35.1106,,N,N,N,N,N,N,N,N,N,N,N,N,N,N,N,N,N,N,N,N,N,N,N,N,N,2011
22003978,45.8 Inman Farmers Market,http://www.hubcityfm.org,45 Park Road (at the Armory),Inman,Spartanburg,South Carolina,29349,,-82.0976,35.048,,N,N,N,N,N,N,N,N,N,N,N,N,N,N,N,N,N,N,N,N,N,N,N,N,N,2009
1004413,48.6 Jonesborough Farmers Market,http://www.jonesborough.locallygrown.net,105 Courthouse Square,Jonesborough,Washington,Tennessee,37659,"May - October Saturday 8:00 AM to 12:00 PM, (We have no market on June 30 or Oct 6 due to festivals in town.)",-82.4728498,36.2940568,Closed-off public street,Y,N,N,N,Y,Y,Y,Y,Y,Y,N,Y,Y,Y,Y,N,Y,Y,N,Y,N,Y,Y,Y,N,5/31/2012 10:53:32 AM
22004480,48.9 Avery County Farmers Market,,Newland Elementary School Parking Lot Highway 18,Newland,Avery County,North Carolina,,,-81.9219,36.0822,,N,N,N,N,N,N,N,N,N,N,N,N,N,N,N,N,N,N,N,N,N,N,N,N,N,2011
1000956,49.6 Greenville State Farmers Market,http://www.agriculture.sc.gov,1354 Rutherford Road,Greenville,Greenville,South Carolina,29609,January - December Monday - Saturday 8:00 AM to 6:00 PM,-82.36667,34.89345,Federal/State government building grounds,N,N,N,N,N,N,Y,N,N,N,N,Y,Y,Y,N,N,N,Y,Y,Y,N,N,N,N,N,4/26/2012 2:42:28 PM
1002455,49.8 Morganton Farmer's Market,http://www.downtownmorganton.com/index.php/farmers-markets,111 North Green Street,Morganton,Burke,North Carolina,28655,April - October Wednesday 2:00 PM to 6:00 PM,-81.688488,35.7466269,Local government building grounds,N,Y,Y,Y,Y,Y,Y,Y,Y,Y,N,Y,Y,N,Y,N,Y,Y,N,Y,Y,Y,Y,Y,N,5/7/2012 3:34:19 PM
1002455,50.1 Morganton Farmer's Market,http://www.downtownmorganton.com/index.php/farmers-markets,300 Beach St.,Morganton,Burke,North Carolina,28680,April - October Saturday 8:00 AM to 12:00 PM,-81.68156,35.74306,Private business parking lot,N,Y,Y,Y,Y,Y,Y,Y,Y,Y,N,Y,Y,N,Y,N,Y,Y,N,Y,Y,Y,Y,Y,N,5/7/2012 3:34:19 PM
1002845,51.1 Johnson City Farmer's Market,http://johnsoncityfarmersmarket.com,500 South Roan Street,Johnson City,Washington,Tennessee,TN,"May - October Wednesday 7:00 AM to 2:00 PM, Saturday 7:00 AM to 2:00 PM",-82.350512,36.315782,Local government building grounds,N,N,N,N,Y,Y,Y,Y,Y,Y,Y,Y,Y,Y,Y,N,Y,N,N,Y,N,Y,Y,Y,N,5/10/2012 11:50:23 AM
22003756,51.5 Beautiful Day Farmers and Artists Market,,located in Federal Building parking lot on Main Street,Bryson City,Swain,North Carolina,28713,,-83.447,35.4263,,N,N,N,N,N,N,N,N,N,N,N,N,N,N,N,N,N,N,N,N,N,N,N,N,N,2009
22002842,51.5 Swain County Tailgate Market,,101 Mitchell St.,Bryson City,Swain,North Carolina,28713,,-83.4479,35.4287,,N,N,N,N,N,N,N,N,N,N,N,N,N,N,N,N,N,N,N,N,N,N,N,N,N,2009
1001901,52.3 TD Saturday Market,http://www.saturdaymarketlive.com/,S. Main St,Greenville,Greenville,South Carolina,29601,May - October Saturday 8:00 AM to 12:00 PM,-82.39973,34.84917,Closed-off public street,N,N,N,N,Y,Y,Y,Y,N,Y,Y,Y,Y,Y,N,Y,Y,N,Y,Y,Y,Y,Y,N,N,5/1/2012 8:15:42 AM
21000595,52.9 Easley Farmers Market,http://www.easleyfarmersmarket.com,205 N. 1st St,Easley,Pickens,South Carolina,29640,January - December Saturday 8:00 am to 12:00 pm,-82.605,34.8303,Private business parking lot,N,N,N,N,N,Y,N,Y,Y,N,Y,Y,Y,Y,Y,N,N,N,Y,Y,N,N,Y,N,N,4/4/2011 3:50:40 PM
22002937,53.2 Friends of the Rickman Store,http://www.ltlt.org,251 Cowee Creek Rd,Franklin,Macon,North Carolina,28734,,-83.4079,35.2614,,N,N,N,N,N,N,N,N,N,N,N,N,N,N,N,N,N,N,N,N,N,N,N,N,N,2009
22002966,55.2 Franklin Tailgate Market,,West Palmer Street,Franklin,Macon,North Carolina,28734,,-83.3916,35.1786,,N,N,N,N,N,N,N,N,N,N,N,N,N,N,N,N,N,N,N,N,N,N,N,N,N,2009
22005409,"55.4 Foothills Farmers' Market, Inc.",http://www.foothillsfarmersmarket.com,117 E College Ave,Boiling Springs,Cleveland,North Carolina,28017,June - August Thursday 5:00 PM to 7:00 PM,-81.667211,35.248928,Local government building grounds,N,N,N,N,N,Y,N,Y,Y,Y,N,Y,Y,Y,N,N,N,N,N,N,N,Y,N,N,N,8/3/2012 4:02:24 PM
22001672,55.5 East Tennessee Regional Food Distribution,,1715 Garden Village Drive,White Pine,Jefferson,Tennessee,37890,,-83.2927,36.1314,,N,N,N,N,N,N,N,N,N,N,N,N,N,N,N,N,N,N,N,N,N,N,N,N,N,2009
22001797,55.8 Pasquotank Farmers Market,,Pritchard St. next to Co-op Ext. Center,Elizabeth City,Pasquotank,North Carolina,27906,,-83.5101,35.3746,,N,N,N,N,N,N,N,N,N,N,N,N,N,N,N,N,N,N,N,N,N,N,N,N,N,2009
1003738,56.3 Dandridge Farmers Market,http://www.mainstreetdandridge.com,Gay Street and Meeting Street,Dandridge,Jefferson,Tennessee,37725,"May - October Saturday 9:00 AM to 12:00 PM, (Occasionally there will be an evening market. Please email for additional Information.)",-83.415756,36.016164,Local government building grounds,N,N,N,N,N,Y,N,N,Y,Y,N,Y,Y,Y,N,N,Y,Y,N,Y,Y,Y,Y,N,N,5/18/2012 8:24:49 PM
1002022,56.3 Hub City Farmers' Market,http://www.hubcityfm.org,298 Magnolia Street,Spartanburg,Spartanburg,South Carolina,29306,"May - November Saturday 8:00 AM to 12:00 PM, (Opening Day will be Saturday, May 12!)",-81.93683,34.95446,Other,Y,Y,Y,Y,Y,Y,Y,Y,Y,Y,Y,Y,Y,Y,Y,N,Y,Y,N,Y,Y,Y,Y,Y,N,5/1/2012 3:08:43 PM
21001573,56.7 Burke County Farmer's Market II,,Faett Street,Valdese,Burke,North Carolina,28690,January - December Saturday 8:00 am to 12:00 pm,-81.5627,35.7411,Local government building grounds,N,Y,N,Y,N,Y,Y,N,Y,N,N,Y,Y,Y,Y,N,Y,N,N,Y,N,Y,N,N,N,4/13/2011 2:26:36 PM
1002022,56.8 Hub City Farmers' Market,http://www.hubcityfm.org,Morgan Square,Spartanburg,Spartanburg,South Carolina,29306,"June - September Wednesday 11:00 AM to 1:00 PM, (Opening Day will be June 6, 2012. )",-81.9321686,34.9497165,Local government building grounds,Y,Y,Y,Y,Y,Y,N,Y,N,Y,N,Y,Y,Y,Y,N,Y,Y,N,Y,N,Y,Y,N,N,5/1/2012 3:08:43 PM
1002022,56.8 Hub City Farmers' Market,http://www.hubcityfm.org,,Spartanburg,Spartanburg,South Carolina,29306,"May - October , (Hours for the Mobile Market will vary. Check the website at www.hubcityfm.org for more information.)",-81.9320482,34.9495672,Other,Y,Y,Y,Y,Y,N,N,N,N,Y,N,N,Y,N,N,N,N,N,N,N,N,N,N,N,N,5/1/2012 3:08:43 PM
21001971,57.1 Appalachian Farmers' Market,http://appfarmersmarket.com,Intersection of Fair Street and Lakeview Drive,Gray,Washington,Tennessee,37615,May Saturday 7:00 am to 12:00 pm June - October,-82.4819,36.4183,Private business parking lot,N,N,N,N,N,Y,Y,Y,Y,N,N,Y,Y,Y,Y,N,Y,N,N,Y,N,N,Y,N,N,1/17/2012 9:00:09 AM
22002589,58.4 Carolina First Saturday Market,http://www.saturdaymarketlive.com,Downtown Greenville,Greenville,Greenville,South Carolina,29603,,-82.3544,34.7651,,N,N,N,N,N,N,N,N,N,N,N,N,N,N,N,N,N,N,N,N,N,N,N,N,N,2009
22002020,60.6 Morristown Farmers Market,,Morris Blvd.,Morristown,Hamblen,Tennessee,37814,,-83.3102,36.2238,,N,N,N,N,N,N,N,N,N,N,N,N,N,N,N,N,N,N,N,N,N,N,N,N,N,2009
22003051,60.8 Valle Crucis Farmers Market at Mast General,,Behind the Mast General Store,Valle Crucis,Watauga,North Carolina,28691,,-81.781,36.2111,,N,N,N,N,N,N,N,N,N,N,N,N,N,N,N,N,N,N,N,N,N,N,N,N,N,2009
22005409,"60.9 Foothills Farmers' Market, Inc.",http://www.foothillsfarmersmarket.com,315 E. Grover Street,Shelby,Cleveland,North Carolina,28150,June - August Tuesday 8:00 AM to 12:00 PM,-81.5353333,35.3017976,Local government building grounds,N,N,N,N,N,N,N,N,N,N,N,N,Y,N,N,N,N,N,N,N,N,N,N,N,N,8/3/2012 4:02:24 PM
22005409,"61.0 Foothills Farmers' Market, Inc.",http://www.foothillsfarmersmarket.com,111 S. Washington Street,Shelby,Cleveland,North Carolina,28150,"April - November Wednesday 8:00 AM to 12:00 PM, Saturday 8:00 AM to 12:00 PM",-81.538591,35.29113,Closed-off public street,N,N,N,N,Y,Y,Y,Y,Y,Y,N,Y,Y,Y,Y,N,Y,Y,Y,Y,Y,Y,Y,Y,N,8/3/2012 4:02:24 PM
22003036,61.1 Lenoir Bluegrass Farmers Market,http://www.thebluegrassmarket.com,112 Church Street,Lenoir,Caldwell,North Carolina,28645,,-81.5401,35.9138,,N,N,N,N,N,N,N,N,N,N,N,N,N,N,N,N,N,N,N,N,N,N,N,N,N,2009
22002008,61.2 Caldwell County Farmers Market,,5936 Rock Falls Road,Lenoir,Caldwell,North Carolina,28645,,-81.5386,35.9166,,N,N,N,N,N,N,N,N,N,N,N,N,N,N,N,N,N,N,N,N,N,N,N,N,N,2009
22004306,61.5 Blowing Rock Fresh Market,http://www.blowingrock.com/freshmarket.htm,Located between Memorial Park and the American Legion on Wallingford Street,Blowing Rock,Watauga County,North Carolina,,,-81.6799,36.1322,,N,N,N,N,N,N,N,N,N,N,N,N,N,N,N,N,N,N,N,N,N,N,N,N,N,2011
22005211,61.6 Simpsonville Farmers Market,http://www.facebook.com/pages/Simpsonville-SC/Simpsonville-Farmers-Market/126756400672753?ref=ts,South St. & Curtis St.,Simpsonville,Greenville,South Carolina,29681,,-82.2582,34.7365,,N,N,N,N,N,N,N,N,N,N,N,N,N,N,N,N,N,N,N,N,N,N,N,N,N,2011
22003972,62.5 Gaffney Station Farmers Market Gaffney Station Farmers Market,,Corner of Frederick St. and Granard St.,Gaffney,Cherokee,South Carolina,29342,,-81.648,35.0763,,N,N,N,N,N,N,N,N,N,N,N,N,N,N,N,N,N,N,N,N,N,N,N,N,N,2009
22001880,63.3 Rogersville Farmers Market,,85 Main St.,Rogersville,Hawkins,Tennessee,37857,,-82.9054,36.4659,,N,N,N,N,N,N,N,N,N,N,N,N,N,N,N,N,N,N,N,N,N,N,N,N,N,2009
21003300,64.2 Clemson Farmers' Market,http://www.clemsonfarmersmarket.org,578 Issaqueena Trail,Clemson,Pickens,South Carolina,29631,"June - November Friday 3:30 pm to 6:30 pm, (2011 Market Preview Event: Friday, May 6, 2011 from 3:00-7:00 p.m.)",-82.787,34.6844,Private business parking lot,N,N,N,N,N,N,Y,Y,Y,N,N,Y,Y,Y,Y,N,Y,N,N,Y,N,N,N,N,N,4/22/2011 4:56:16 PM
22001885,64.5 Walhalla Farmers Market,,Church Street,Walhalla,Oconee,South Carolina,29691,,-83.07,34.7613,,N,N,N,N,N,N,N,N,N,N,N,N,N,N,N,N,N,N,N,N,N,N,N,N,N,2009
1004180,65.2 Clemson Farm-Fresh Market,http://www.facebook.com/CUFarmFresh,Intersection of Fort Hill Street and Calhoun Drive,Clemson,Pickens,South Carolina,29634,"September - November Wednesday 11:00 AM to 2:00 PM, (September 12th, September 26th, October 10th, October 24th, November 7th)",-82.837665,34.679047,Educational institution,Y,N,N,N,N,Y,N,Y,N,Y,N,Y,Y,Y,Y,N,N,N,N,N,N,N,Y,N,N,5/25/2012 7:37:48 PM
1002194,65.3 Watauga County Farmers' Market,http://wataugacountyfarmersmarket.org,591 Horn In the West Drive,Boone,Watauga,North Carolina,28607,"November , (We are also open 8am - 12pm on the Saturdays before and after Thanksgiving)",-81.669862,36.209499,Other,Y,Y,N,Y,Y,Y,Y,Y,Y,Y,N,Y,Y,Y,Y,N,Y,Y,N,Y,Y,Y,Y,Y,N,5/3/2012 12:09:01 PM
22000751,65.4 High Country Farmers Market,http://highcountryfarmersmarket.wordpress.com,178 King St,Boone,Watauga,North Carolina,28607,,-81.6758,36.2169,,N,N,N,N,N,N,N,N,N,N,N,N,N,N,N,N,N,N,N,N,N,N,N,N,N,May 22 2010 4:19PM
21001039,65.5 Fountain Inn Farmers Market,http://www.fountaininn.org/community,102 Depot Street,Fountain Inn,Greenville,South Carolina,29644,January - December,-82.1996,34.6924,Local government building grounds,N,Y,Y,Y,Y,Y,Y,Y,Y,N,N,Y,Y,Y,N,N,Y,N,N,Y,N,N,Y,N,N,4/5/2011 11:30:42 AM
21002742,66.1 kingsport farmers market,,conor of clinchfild and center street,kingsport tn.,Sullivan,Tennessee,,January - December,-82.5648,36.551,Local government building grounds,N,Y,N,N,N,Y,N,Y,Y,N,N,Y,Y,Y,Y,Y,Y,N,Y,Y,N,N,Y,N,N,4/19/2011 8:43:15 PM
1002363,66.2 Blountville Farmer's Market,,3258 Highway 126,Blountville,Sullivan,Tennessee,37617,"April - October , (There is no set ending time for the Market as customer traffic and vendor inventory may change weekly.)",-82.3201083333,36.5340472222,Local government building grounds,N,N,N,N,N,Y,N,Y,N,Y,N,Y,Y,Y,Y,N,Y,Y,N,N,N,N,N,Y,N,5/7/2012 11:39:02 AM
22001884,66.7 Seneca Farmers Market,,Main Street,Seneca,Oconee,South Carolina,29678,,-82.9515,34.6851,,N,N,N,N,N,N,N,N,N,N,N,N,N,N,N,N,N,N,N,N,N,N,N,N,N,2009
22000188,67.1 Pendleton Farmers Market,http://www.pendletonfarmersmarket.org,On the Village Green,Pendleton,Anderson,South Carolina,29670,,-82.7816,34.6409,,N,N,N,N,N,N,N,N,N,N,N,N,N,N,N,N,N,N,N,N,N,N,N,N,N,Apr 27 2010 6:40PM
22003305,67.7 Shull's Farmer and Gardener Co-op,http://www.shullsfarm.com,4249 Roan Creek Road,Mountain City,Johnson,Tennessee,37683,,-81.8588,36.3961,,N,N,N,N,N,N,N,N,N,N,N,N,N,N,N,N,N,N,N,N,N,N,N,N,N,2009
22000535,68.7 Simply Homegrown: A Farmers' Market,http://www.simplyhomegrown.org,74 N. Main Street,Clayton,Rabun,Georgia,30525,,-83.4006,34.8786,,N,N,N,N,N,N,N,N,N,N,N,N,N,N,N,N,N,N,N,N,N,N,N,N,N,May 9 2010 6:41AM
22003330,69.6 Seymour Farmers Market,,11621 Chapman Highway,Seymour,Sevier,Tennessee,37865,,-83.7498,35.8662,,N,N,N,N,N,N,N,N,N,N,N,N,N,N,N,N,N,N,N,N,N,N,N,N,N,2009
1001331,70.5 Northeast Georgia. Locally Grown.net,http://http:/www.northeastgeorgia.locallygrown.net,63 Mill Gap Lane,Tiger,Rabun,Georgia,30576,April - December Wednesday 5:00 PM to 7:00 PM,-83.4268816,34.8626154,"On a farm from: a barn, a greenhouse, a tent, a stand, etc",N,N,N,N,N,Y,Y,N,Y,Y,Y,Y,Y,Y,Y,N,Y,N,N,N,Y,Y,Y,N,N,4/27/2012 11:10:58 PM
22005275,72.2 Town of Gate City Farmer's Market,http://www.townofgatecity.com/,156 East Jackson Street,Gate City,,Virginia,24251,,-82.5791,36.6392,,N,N,N,N,N,N,N,N,N,N,N,N,N,N,N,N,N,N,N,N,N,N,N,N,N,2011
22003332,72.2 State Street Farmers Market,http://www.brisltn.org/venue/farmersmarketindex.html,Stat Street,Bristol,Sullivan,Tennessee,37625,,-82.1388,36.5844,,N,N,N,N,N,N,N,N,N,N,N,N,N,N,N,N,N,N,N,N,N,N,N,N,N,2009
21001029,72.4 Johnson County Farmers Market,http://www.johnsoncountyfarmersmarket.org,212 Roan Creek Rd.,Mountain City,Johnson,Tennessee,37683,"January - December Tuesday 3:00 pm to 6:00 pm, Saturday 9:00 am to 1:00 pm, (Tuesdays open June 14 to August 30)",-81.7995,36.4454,Private business parking lot,N,N,N,N,N,N,N,Y,Y,N,N,Y,Y,Y,Y,N,Y,N,N,Y,N,Y,Y,N,N,4/5/2011 10:58:29 AM
22003306,72.8 The Garden Barn Farmers Market,,South Shady Street,Mountain City,Johnson,Tennessee,37683,,-81.7984,36.4522,,N,N,N,N,N,N,N,N,N,N,N,N,N,N,N,N,N,N,N,N,N,N,N,N,N,2009
1004478,72.9 Graham County Farmer's Market,http://smnpa.org,Main Street,Robbinsville,Graham,North Carolina,28771,July - October Saturday 8:00 AM to 12:00 PM,-83.807144,35.324019,Other,N,N,N,N,N,Y,N,N,N,N,N,Y,Y,Y,Y,N,N,N,N,N,N,N,N,N,N,5/31/2012 6:32:17 PM
22003329,73.2 Mountain City Farmers Market,,1273 S. Shady Street,Mountain City,Johnson,Tennessee,37683,,-81.7998,36.4596,,N,N,N,N,N,N,N,N,N,N,N,N,N,N,N,N,N,N,N,N,N,N,N,N,N,2009
22000877,73.4 Lincoln County Farmers Market in Downtown Lincolnton,http://www.lincolnfreshfinds.blogspot.com,225 West Water Street,Lincolnton,Lincoln,North Carolina,28092,,-81.2592,35.4698,,N,N,N,N,N,N,N,N,N,N,N,N,N,N,N,N,N,N,N,N,N,N,N,N,N,Jun 2 2010 2:20PM
22001873,73.9 Belton Farmers Market,,North Main Street & Blake Street,Belton,Anderson,South Carolina,29627,,-82.496,34.5268,,N,N,N,N,N,N,N,N,N,N,N,N,N,N,N,N,N,N,N,N,N,N,N,N,N,2009
22003783,75.3 Anderson County Farmers Market,,Murray Avenue & Tribble Street,Anderson,Anderson,South Carolina,29624,,-82.6527,34.5071,,N,N,N,N,N,N,N,N,N,N,N,N,N,N,N,N,N,N,N,N,N,N,N,N,N,2009
1002751,"75.5 Conover Farmers Market, Inc",http://www.conoverfarmersmarket.org,109 1st Street East,Conover,Catawba,North Carolina,28613,"April - October Saturday 7:30 AM to 12:00 PM November Saturday 10:00 AM to 2:00 PM, (Holiday Craft Fair which includes farmers market vendors)",-81.217697,35.706395,Local government building grounds,N,Y,N,Y,Y,Y,Y,Y,Y,Y,N,Y,Y,Y,Y,N,Y,Y,Y,Y,N,Y,Y,Y,Y,5/9/2012 4:05:27 PM
22005399,75.5 Farmers Market at The Filling Station,,302 East Whitner Street,Anderson,Anderson,South Carolina,29621,June - August Tuesday 4:00 PM to 7:00 PM,-82.6468889,34.5040342,Private business parking lot,Y,N,N,N,N,Y,Y,Y,Y,Y,N,Y,Y,Y,Y,N,Y,Y,N,Y,N,Y,Y,N,N,7/23/2012 4:00:15 PM
22003256,75.7 Catawba County Farmers Market,http://www.ces.ncsu.edu/copubs/ag/fnv/002,Highway 70-321,Newton,Catawba,North Carolina,28658,,-81.2143,35.7012,,N,N,N,N,N,N,N,N,N,N,N,N,N,N,N,N,N,N,N,N,N,N,N,N,N,2009
22001576,76.4 Andrews Farmers Market,http://andrewsfarmersmarket.com,First Street,Andrews,Cherokee,North Carolina,,,-83.8232,35.2027,,N,N,N,N,N,N,N,N,N,N,N,N,N,N,N,N,N,N,N,N,N,N,N,N,N,2009
22002838,76.4 Mountain Valley Farmers Market,,Old Courthouse Square,Hayesville,Clay,North Carolina,28904,,-83.7449,35.0645,,N,N,N,N,N,N,N,N,N,N,N,N,N,N,N,N,N,N,N,N,N,N,N,N,N,2009
1002988,78.7 Fair Play Farmers Market,,150 School Rd,Fair Play,Oconee,South Carolina,29643,June - September Saturday 7:30 AM to 10:30 AM,-82.9865725,34.5116227,Other,N,Y,N,Y,N,Y,N,Y,N,Y,N,N,Y,Y,Y,N,N,N,N,Y,N,N,Y,N,N,5/13/2012 3:17:39 PM
22003328,80.1 Maryville Farmers Market,http://www.maryvillefarmersmarket.org,E Church Avenue,Maryville,Blount,Tennessee,37803,,-83.9696,35.7567,,N,N,N,N,N,N,N,N,N,N,N,N,N,N,N,N,N,N,N,N,N,N,N,N,N,2009
1002962,80.4 Nickelsville Farmers Market,,11826 Nickelsville Hwy,Nickelsville,Scott,Virginia,24271,June - September Friday 4:00 PM to 8:00 PM,-82.4157,36.752,Local government building grounds,Y,N,N,N,Y,Y,Y,Y,N,Y,N,N,Y,Y,N,N,Y,N,N,Y,N,N,N,N,N,5/11/2012 9:25:40 PM
22001905,80.4 Union Farmers Market,,North Mountain Street,Union,Union,South Carolina,29379,,-81.6216,34.7172,,N,N,N,N,N,N,N,N,N,N,N,N,N,N,N,N,N,N,N,N,N,N,N,N,N,2009
1004260,80.6 New Harvest Park Farmers Market,,4775 New Harvest Lane,Knoxville,Knox,Tennessee,37918,April - December Thursday 3:00 PM to 6:00 PM,-83.884558,36.040025,Local government building grounds,Y,N,N,N,Y,Y,Y,Y,Y,Y,N,Y,Y,Y,Y,N,Y,Y,Y,Y,N,Y,Y,Y,N,5/29/2012 10:09:28 AM
1000528,80.6 The Market Square Farmers' Market,http://marketsquarefarmersmarket.org,1 Market Square,Knoxville,Knox,Tennessee,39702,"May - November Wednesday 11:00 AM to 2:00 PM, Saturday 9:00 AM to 2:00 PM",-83.919454,35.965242,Closed-off public street,N,N,N,N,Y,Y,Y,Y,Y,Y,Y,Y,Y,Y,Y,N,Y,Y,N,Y,Y,Y,Y,Y,N,4/25/2012 12:42:43 PM
22000952,80.9 fridays@G-Town Market,,Main Street,Gastonia,Gaston,North Carolina,28052,,-81.1773,35.2641,,N,N,N,N,N,N,N,N,N,N,N,N,N,N,N,N,N,N,N,N,N,N,N,N,N,Jun 9 2010 12:16PM
1001307,81.0 Gastonia Farmers Market,http://www.gastoniafarmersmarket.com,410 E Long Avenue,Gastonia,Gaston,North Carolina,28054,"April Saturday 8:00 AM to 12:00 PM May - October Tuesday 7:00 AM to 1:00 PM, Thursday 7:00 AM to 1:00 PM, Saturday 7:00 AM to 1:00 PM November Saturday 8:00 AM to 12:00 PM December Friday - Saturday 9 to 5, (December is for local craft faire...1st and 2nd weekends of December.)",-81.1757,35.26521,Local government building grounds,Y,Y,N,N,N,Y,Y,Y,Y,Y,N,Y,Y,Y,Y,N,Y,Y,Y,Y,Y,Y,Y,Y,Y,4/27/2012 5:27:20 PM
1001601,81.2 UT Farmers Market,http://tennessee.vegetables.edu,2518 Jacob Drive,Knoxville,Knox,Tennessee,37996,May - October Wednesday 4:00 PM to 7:00 PM,-83.938079,35.944173,Educational institution,Y,N,N,N,N,Y,Y,Y,Y,Y,N,Y,Y,N,Y,N,Y,Y,N,Y,N,Y,Y,N,N,4/30/2012 1:34:24 PM
1004309,81.3 Towns County Farmers Market,,Hwy 76 West,Hiawassee,Towns,Georgia,30546,June - October Saturday 8:00 AM to 1:00 PM,-83.772297,34.963201,Local government building grounds,Y,N,N,N,N,N,N,N,Y,N,N,Y,Y,Y,N,N,N,Y,N,Y,N,N,Y,Y,N,5/29/2012 10:10:59 PM
1000517,81.5 Ashe County Farmers Market,,108 Backstreet,West Jefferson,Ashe,North Carolina,28694,"April - December Wednesday 8:00 AM to 1:00 PM, Saturday 8:00 AM to 1:00 PM, (The Saturday Market will be April - December. and the Wednesday Market will open July 11, 2012 - September 2012.)",-81.493514,36.402494,Local government building grounds,Y,Y,N,Y,Y,Y,Y,Y,Y,Y,Y,Y,Y,Y,Y,Y,Y,Y,Y,Y,Y,N,Y,Y,N,4/25/2012 12:37:43 PM
22003784,81.9 Laurens Farmers Market,,Historic Downtown Laurens,Laurens,Laurens,South Carolina,29360,,-82.0151,34.4946,,N,N,N,N,N,N,N,N,N,N,N,N,N,N,N,N,N,N,N,N,N,N,N,N,N,2009
22001929,82.1 Tri-State Farmers Market,,Methodist Church,Tazewell,Claiborne,Tennessee,37879,,-83.5532,36.4678,,N,N,N,N,N,N,N,N,N,N,N,N,N,N,N,N,N,N,N,N,N,N,N,N,N,2009
1001782,82.5 East TN Farmers Association for Retail Marketing (F.A.R.M.),http://www.easttnfarmmarkets.org,3457 Kingston Pike,Knoxville,Knox,Tennessee,37919,"April - November Tuesday 3:00 PM to 6:00 PM, Friday 3:00 PM to 6:00 PM",-83.9609043,35.947668,"Faith-based institution (e.g., church, mosque, synagogue, temple)",N,N,N,N,N,Y,Y,N,Y,Y,N,Y,Y,Y,Y,N,Y,N,N,Y,N,N,N,Y,N,4/30/2012 6:40:50 PM
22003623,83.0 Duffield Farmers Market,,,Jonesville,Lee,Virginia,24263,,-83.154,36.695,,N,N,N,N,N,N,N,N,N,N,N,N,N,N,N,N,N,N,N,N,N,N,N,N,N,2009
1004338,83.5 Abingdon Farmers Market,http://www.abingdonfarmersmarket.com,Remsburg Drive and Cummings Street,Abingdon,Washington,Virginia,24210,"April - August Tuesday 3:00 PM to 6:00 PM, Saturday 7:00 AM to 12:00 PM September - November Tuesday 3:00 PM to 6:00 PM, Saturday 8:00 AM to 12:00 PM December Saturday 10:00 AM to 12:00 PM",-81.977406,36.708734,Local government building grounds,N,N,N,Y,Y,Y,Y,Y,Y,Y,N,Y,Y,Y,Y,Y,Y,Y,Y,Y,Y,Y,Y,Y,Y,5/30/2012 12:25:04 PM
21005019,85.1 Lowell Farmers' Market,http://lowellnc.com/LowellFarmersMarket.htm,200 E. Second Street,Lowell,Gaston,North Carolina,28098,January - December Thursday 4:00 pm to 8:00 pm,-81.0994,35.2668,Closed-off public street,N,N,N,N,N,Y,N,Y,Y,N,N,Y,Y,Y,Y,Y,Y,N,Y,Y,N,N,Y,N,N,5/9/2011 8:29:38 AM
21005296,85.1 Blue Ridge Farmers Market,,626 Ashe Central School Road (Ashe Family Central),Jefferson,Alleghany,North Carolina,28640,"January - December Monday 11:00 am to 3:30 pm, Thursday 11:00 am to 6:30 pm",-81.4353,36.4287,Educational institution,N,N,N,N,N,Y,Y,Y,N,N,N,N,Y,Y,Y,N,Y,N,N,N,N,Y,Y,N,N,5/13/2011 9:59:02 AM
22000878,86.1 Lincoln County Farmers Market at Denver,http://www.lincolnfreshfinds.blogspot.com,3633 Highway 16 North,Denver,Lincoln,North Carolina,28037,,-81.0259,35.5287,,N,N,N,N,N,N,N,N,N,N,N,N,N,N,N,N,N,N,N,N,N,N,N,N,N,Jun 2 2010 2:26PM
1004326,86.1 Lavonia Georgia Farmers Market,http://www.LavoniaEvents.com,East Main Street,Lavonia,Franklin,Georgia,30553,"January - December Wednesday 7:00 am to 11:00 am, Saturday 7:00 am to 11:00 am, (During special downtown events , seasonal festivals, and the annual Christmas Festival on December 7th - 5 pm - 9 pm, the Farmers Market vendors are invited to participate .)",-83.1038038,34.4314028,Other,Y,Y,N,N,N,Y,N,Y,Y,Y,N,Y,Y,Y,Y,N,N,Y,Y,Y,N,Y,Y,Y,N,5/30/2012 10:16:05 AM
1001311,86.2 York Tailgate Market,http://www.yorktailgatemarket.blogspot.com,802 E Liberty St,York,York,South Carolina,29745,April Saturday 8:00 AM to 12:00 PM September Saturday 8:00 AM to 12:00 PM,-81.2217622,34.9858219,Private business parking lot,Y,N,N,Y,N,N,Y,Y,Y,Y,N,Y,Y,Y,Y,Y,Y,Y,Y,N,N,N,Y,Y,N,4/27/2012 5:45:26 PM
1001331,86.9 Northeast Georgia. Locally Grown.net,http://http:/www.northeastgeorgia.locallygrown.net,295 E. Green St.,Clarkesville,Habersham,Georgia,30523,"April - December Wednesday 5:00 PM to 7:00 PM, (Pick up of orders is from 5:00 to 7:00 pm Wed. evening)",-83.5231858,34.6164668,"Faith-based institution (e.g., church, mosque, synagogue, temple)",N,N,N,N,N,Y,Y,N,Y,Y,Y,Y,Y,Y,N,N,Y,N,N,N,Y,Y,Y,N,N,4/27/2012 11:10:58 PM
22005496,87.1 Clarkesville Farmers Market,http://clarkesvillefarmersmarket.com,1087 Washington St.,Clarkesville,Habersham,Georgia,30523,May - October Saturday 9:00 AM to 12:00 PM,-83.5234293,34.6127456,"Faith-based institution (e.g., church, mosque, synagogue, temple)",N,N,N,N,N,Y,N,Y,Y,Y,N,N,Y,N,Y,N,Y,N,N,Y,Y,N,Y,N,N,4/23/2013 7:54:14 PM
1004497,87.2 Clarkesville Farmers Market,,140 Laprade Street,Clarkesville,Habersham,Georgia,30523,June - October Saturday 9:00 AM to 12:00 PM,-83.5298,34.6154579,Private business parking lot,Y,N,N,N,N,Y,N,N,Y,Y,N,Y,Y,Y,N,N,Y,Y,N,Y,N,Y,Y,N,N,5/31/2012 11:06:15 PM
22001563,87.3 Cedar Valley Farmers Market,,Downtown Murphy on the square,Murphy,Cherokee,North Carolina,28906,,-83.9668,35.0731,,N,N,N,N,N,N,N,N,N,N,N,N,N,N,N,N,N,N,N,N,N,N,N,N,N,2009
22003965,87.5 Due West Farmers Market,http://www.duewestfarmers.org,Hwy. 184 & Beulah Street,Due West,,South Carolina,29639,,-82.3863,34.3355,,N,N,N,N,N,N,N,N,N,N,N,N,N,N,N,N,N,N,N,N,N,N,N,N,N,2009
1004288,88.4 Hartwell Farmers Market,,City MLK Parking Lot,Hartwell,Hart,Georgia,30643,April - November Tuesday 3:30 PM to 7:00 PM,-82.933731,34.353623,Other,N,Y,Y,N,N,Y,N,N,Y,Y,N,Y,Y,Y,Y,N,N,N,N,Y,N,N,Y,Y,N,5/29/2012 3:25:57 PM
1004288,88.4 Hartwell Farmers Market,,Intersection of Carter & Howell Streets,Hartwell,Hart,Georgia,30643,April - November Saturday 7:00 AM to 12:00 PM,-82.9308839,34.3522048,Private business parking lot,N,Y,Y,N,N,Y,N,N,N,Y,N,Y,Y,Y,Y,N,N,N,Y,Y,N,N,Y,Y,N,5/29/2012 3:25:57 PM
22003254,88.6 Wilkes County Farmers Market,,200 Chestnut Street,North Wilkesboro,Wilkes,North Carolina,28659,,-81.1377,36.163,,N,N,N,N,N,N,N,N,N,N,N,N,N,N,N,N,N,N,N,N,N,N,N,N,N,2009
1003562,88.8 Big Stone Gap Farmers Market,http://www.appfma.org/markets/big-stone-gap,460 Shawnee Avenue,Big Stone Gap,Wise,Virginia,24219,June - October Saturday 9:00 AM to 12:00 PM,-82.7752448,36.8681813,Local government building grounds,Y,N,N,Y,Y,Y,N,Y,Y,Y,N,Y,Y,Y,Y,Y,Y,Y,Y,Y,Y,Y,Y,Y,Y,5/17/2012 1:53:52 PM
1000961,89.1 Mount Holly Farmers Market,http://www.mounthollyfarmersmarket.com,130 South Main Street,Mount Holly,Gaston,North Carolina,28120,May - September Saturday 8:00 AM to 12:00 PM,-81.01675,35.29576,Private business parking lot,N,N,N,N,N,Y,Y,N,N,Y,Y,Y,Y,Y,Y,N,Y,Y,N,Y,Y,Y,Y,N,N,4/26/2012 2:45:02 PM
22004963,89.2 Iva Farmers Market,,S.C. Hwy 81 and Broad Street,Iva,Anderson,South Carolina,,,-82.6639,34.3066,,N,N,N,N,N,N,N,N,N,N,N,N,N,N,N,N,N,N,N,N,N,N,N,N,N,2011
1002224,91.3 Clinch River Farmers Market,,4th Street and Russell St.,St. Paul,Wise,Virginia,24283,"May - October Wednesday 2:00 AM to 5:00 PM, Saturday 8:00 AM to 1:00 PM",-82.707138,36.909823,Other,Y,N,N,N,Y,Y,N,Y,N,Y,N,Y,Y,Y,Y,N,Y,Y,Y,Y,N,N,Y,N,Y,5/3/2012 9:29:35 PM
1002836,92.6 Norton Friends & Farmers Market,http://nortonfarmersmarket.org,"815 Park Avenue, S.W.",Norton,Norton,Virginia,24273,"June - October Tuesday 4:00 PM to 7:00 PM, (Open Rain or Shine!)",-82.629976,36.933188,Local government building grounds,Y,N,N,Y,Y,Y,Y,Y,N,Y,N,Y,Y,Y,Y,N,Y,Y,N,Y,Y,Y,Y,Y,N,5/10/2012 9:54:09 AM
1004786,93.0 Union County Farmers Market,http://www.ucfarmersmarket.com,148 Old Smokey Rd.,Blairsville,Union,Georgia,30512,"June - October Tuesday 3:00 PM to 7:00 PM, Friday 8:00 AM to 1:00 PM, Saturday 7:00 AM to 1:00 PM, (2nd & 4th Thurs. 3pm - 7pm, )",-83.952563,34.881671,Closed-off public street,N,N,N,N,N,Y,N,Y,Y,N,N,N,Y,Y,Y,N,N,N,N,Y,N,N,Y,Y,N,6/5/2012 1:44:09 PM
1003245,93.6 Glade Spring Farmers Market,http://www.gladespringfarmersmarket.com/,100 Town Square St,Glade Spring,Washington,Virginia,24340,May - October Saturday 8:00 AM to 12:00 PM,-81.7709398,36.7918625,Closed-off public street,N,Y,N,Y,Y,Y,N,N,Y,Y,N,Y,Y,N,Y,N,N,N,N,Y,N,N,N,N,N,5/15/2012 4:06:13 PM
22003275,93.6 Stateville Rotary Farmers Market,,East Sharpe Street,Statesville,Iredell,North Carolina,28677,,-80.9019,35.7725,,N,N,N,N,N,N,N,N,N,N,N,N,N,N,N,N,N,N,N,N,N,N,N,N,N,2009
22002009,94.1 North Mecklenburg Farmers Market,,700 N. Tryon Street,Charlotte,Mecklenburg,North Carolina,28202,,-80.8893,35.4745,,N,N,N,N,N,N,N,N,N,N,N,N,N,N,N,N,N,N,N,N,N,N,N,N,N,2009
22002114,94.1 People's Market of Lebanon,,Lebanon Elementary & Middle Schools,Lebanon,Russell,Virginia,24266-0697,,-82.0757,36.9001,,N,N,N,N,N,N,N,N,N,N,N,N,N,N,N,N,N,N,N,N,N,N,N,N,N,2009
1002499,94.5 The Evening Farmers Market,,"Pecan Park, Center and Water Streets",Statesville,Iredell,North Carolina,28677,April - October Thursday 4:00 PM to 6:30 PM,-80.88905,35.78607,Other,N,N,N,Y,N,Y,Y,Y,Y,Y,N,Y,Y,Y,Y,N,Y,Y,N,Y,Y,N,Y,Y,N,5/7/2012 7:40:44 PM
1001325,94.6 Dixie Lee Farmers Market,http://www.dixieleefarmersmarket.com/,12740 Kingston Pike,Knoxville,Knox,Tennessee,37934,April - October Saturday 9:00 AM to 12:00 PM,-84.2094222222,35.8671361111,Private business parking lot,Y,N,N,N,N,Y,Y,Y,Y,Y,N,Y,Y,Y,N,N,Y,Y,N,Y,Y,Y,Y,Y,N,4/27/2012 7:34:46 PM
22003738,95.3 Middlesboro Farmers' Market,,2005 Cumberland Ave.,Middlesboro,Bell,Kentucky,,,-83.7147,36.6072,,N,N,N,N,N,N,N,N,N,N,N,N,N,N,N,N,N,N,N,N,N,N,N,N,N,2009
1003647,96.1 Crossroads Regional Farmers Market,,"East Broad Street, Newtowne Shopping Center",Statesville,Iredell,North Carolina,28677,"April - October Tuesday 4:00 PM to 8:00 PM, Friday 4:00 PM to 8:00 PM, (Fridays only April, May, and October)",-80.860319,35.791849,Private business parking lot,N,N,N,N,N,N,N,N,N,Y,N,N,Y,Y,Y,N,Y,Y,N,Y,N,N,N,Y,N,5/18/2012 6:23:45 AM
1004703,96.1 The Davidson Farmers Market,http://www.davidsonfarmersmarket.org,North Main Street,Davidson,Mecklenburg,North Carolina,28036,"January - March Saturday 9:00 AM to 12:00 PM, (Open on the 1st and 3rd Saturdays only) April - October Saturday 8:00 AM to 12:00 PM, (Open every Saturday) November - December Saturday 9:00 AM to 12:00 PM, (Open on the 1st and 3rd Saturdays only)",-80.84991,35.49806,Other,N,N,N,N,Y,Y,Y,N,Y,Y,Y,Y,Y,Y,Y,N,Y,Y,N,Y,Y,Y,Y,Y,N,6/4/2012 2:49:10 PM
22003157,96.1 Harlan County Farmers Market,,110 River Street behind the Huddle House,Harlan,Harlan,Kentucky,40831,,-83.3239,36.8404,,N,N,N,N,N,N,N,N,N,N,N,N,N,N,N,N,N,N,N,N,N,N,N,N,N,2009
22001996,96.6 Charlotte Regional Farmers Market,http://www.ncdamarkets.org,1801 Yorkmont Road,Charlotte,Mecklenburg,North Carolina,28266-9184,,-80.9135,35.1897,,N,N,N,N,N,N,N,N,N,N,N,N,N,N,N,N,N,N,N,N,N,N,N,N,N,2009
1000775,96.8 Chilhowie Farmer's Market,http://www.chilhowie.org,East Lee Highway,Chilhowie,Smyth,Virginia,24319,May - October Thursday 3:00 PM to 6:00 PM,-81.67717,36.802103,Local government building grounds,N,N,N,N,N,Y,N,N,Y,Y,N,Y,Y,Y,Y,Y,N,Y,N,Y,N,N,N,N,N,4/26/2012 1:27:41 PM
1004303,97.0 White County Farmers Market,,66 East Kytle Street,Cleveland,White,Georgia,30528,June - September Saturday 7:30 AM to 12:00 PM,-83.761911,34.596317,Local government building grounds,N,N,N,N,N,Y,Y,Y,Y,Y,N,Y,Y,Y,Y,N,N,Y,Y,Y,N,Y,N,Y,N,5/29/2012 6:51:08 PM
1001093,97.3 Huntersville Market,http://www.huntersville.org,103 Maxwell Streeet,Huntersville,Mecklenburg,North Carolina,28078,May Saturday 7:00 AM to 12:00 PM October Saturday 7:00 AM to 12:00 PM,-80.84126,35.41135,Local government building grounds,N,N,N,N,N,Y,Y,Y,Y,N,N,N,Y,Y,Y,N,Y,Y,N,Y,N,N,N,N,N,4/26/2012 4:39:36 PM
1002733,97.7 Chester County Farmers Market,http://www.clemson.edu/extension/county/chester/market,116 Columbia Street,Chester,Chester,South Carolina,29706,"June - December Tuesday 7:00 AM to 12:00 PM, Thursday 7:00 AM to 12:00 PM, Saturday 7:00 AM to 12:00 PM",-81.2132068,34.7039376,Other,N,Y,Y,Y,N,N,N,Y,Y,N,N,Y,Y,Y,N,N,N,Y,N,N,N,N,N,N,N,5/9/2012 3:17:13 PM
22001909,97.8 York County Farmers Market,,Elizabeth Lane & Black Street,Rock Hill,York,South Carolina,29745,,-81.027,34.9276,,N,N,N,N,N,N,N,N,N,N,N,N,N,N,N,N,N,N,N,N,N,N,N,N,N,2009
1001027,97.8 Old Town Market,http://onlyinoldtown.com/market,190 Dave Lyle Boulevard,Rock Hill,York,South Carolina,29730,"May - September Thursday 5:00 PM to 8:00 PM, Saturday 8:00 AM to 12:00 PM, (Old Town Market will be open this season from May 10th to September 1st.)",-81.02697,34.927249,Other,Y,Y,N,Y,N,N,N,Y,Y,Y,N,Y,Y,Y,Y,N,Y,N,N,Y,Y,Y,Y,Y,Y,4/26/2012 3:31:18 PM
22003769,98.0 Mooresville Rotary Club Farmers Market,,Located at First Baptist Church parking lot,Mooresville,Iredell,North Carolina,28115,,-80.8119,35.5808,,N,N,N,N,N,N,N,N,N,N,N,N,N,N,N,N,N,N,N,N,N,N,N,N,N,2009
22001900,98.4 Greenwood Farmers Market,,123 Oakridge Dr.,Greenwood Greenwood,Greenwood,South Carolina,29549,,-82.1403,34.2115,,N,N,N,N,N,N,N,N,N,N,N,N,N,N,N,N,N,N,N,N,N,N,N,N,N,2009
21000528,98.5 Abbeville Farmers Market,,118 Trinity Street at Livery Stable,Abbeville,Abbeville,South Carolina,29620,January - December Friday 7:00 am to 12:00 pm,-82.3811,34.176,Local government building grounds,N,N,N,Y,N,Y,Y,N,Y,N,N,Y,Y,Y,Y,N,Y,N,N,Y,N,N,Y,N,N,4/4/2011 3:44:34 PM
22003327,98.8 Oak Ridge Farmers Market,,Square at Georgia Avenue,Oak Ridge,Anderson,Tennessee,37849,,-84.2356,36.0281,,N,N,N,N,N,N,N,N,N,N,N,N,N,N,N,N,N,N,N,N,N,N,N,N,N,2009
1001782,99.0 East TN Farmers Association for Retail Marketing (F.A.R.M.),http://www.easttnfarmmarkets.org,Jackson Square,Oak Ridge,Anderson,Tennessee,37830,,-84.24019,36.028821,Local government building grounds,N,N,N,N,N,Y,Y,N,Y,Y,N,Y,Y,Y,Y,N,Y,Y,N,Y,N,N,N,Y,N,4/30/2012 6:40:50 PM
1004028,99.1 Atherton Market,http://www.facebook.com/athertonmillandmarket,2104 South Boulevard,Charlotte,Mecklenburg,North Carolina,28203,"January - December Tuesday 9:00 AM to 7:00 PM, Wednesday - Saturday 9:00 AM to 2:00 PM",-80.86127,35.20844,Other,Y,N,N,N,Y,Y,Y,Y,Y,Y,Y,Y,Y,Y,Y,N,Y,Y,Y,Y,Y,N,Y,N,Y,5/24/2012 1:29:06 PM
22000731,99.6 Center City Green Market,http://www.centercitygreenmarket.com,101 S Tryon St,Charlotte,Mecklenburg,North Carolina,28202,,-80.846,35.2263,,N,N,N,N,N,N,N,N,N,N,N,N,N,N,N,N,N,N,N,N,N,N,N,N,N,May 21 2010 11:25AM
1003902,100.3 Bradford Store,http://www.thebradfordstore.com/,15915 Davidson Concord Rd,Huntersville,Mecklenburg,North Carolina,28078,"January - December Tuesday - Friday 10:00 AM to 6:00 PM, Saturday 9:00 AM to 4:00 PM",-80.7855537,35.423328,"On a farm from: a barn, a greenhouse, a tent, a stand, etc",N,N,N,N,N,Y,Y,N,N,Y,N,N,Y,Y,Y,Y,Y,N,Y,N,N,Y,Y,N,N,5/22/2012 1:40:56 PM
22003786,100.3 Springs Farm Farmers Market,http://www.springsfarm.com,1002 Springfield Parkway,Fort Mill,York,South Carolina,29715,,-80.9214,35.0207,,N,N,N,N,N,N,N,N,N,N,N,N,N,N,N,N,N,N,N,N,N,N,N,N,N,2009
1004034,100.8 Elizabeth Avenue Farmers Market,http://www.elizabethavefarmersmarket.com,1521 Elizabeth Ave,Charlotte,Mecklenburg,North Carolina,28204,January - December Saturday 9:00 AM to 1:00 PM,-80.8269849,35.214409,Private business parking lot,N,N,N,N,N,N,Y,N,Y,Y,Y,Y,Y,Y,N,N,Y,N,N,Y,Y,N,N,N,N,5/24/2012 1:45:26 PM
21006057,101.9 Alleghany County Farmer's Market,,,Sparta,Alleghany,North Carolina,28675,"January - December Thursday 3:30 pm to 5:30 pm, Saturday 10:00 am to 2:00 pm",-81.1209,36.5054,Private business parking lot,N,N,N,N,N,Y,Y,Y,Y,N,N,N,Y,Y,Y,N,Y,N,N,Y,N,N,N,N,N,1/26/2012 2:59:07 PM
22005084,102.6 Ninety Six Farmers Market,,SC Hwy 34 & Cane Bridge St,Ninety Six,Greenwood,South Carolina,29666,,-82.0231,34.1751,,N,N,N,N,N,N,N,N,N,N,N,N,N,N,N,N,N,N,N,N,N,N,N,N,N,2011
1001102,103.3 Marion (VA) Regional Farmers Market,http://www.marionva.org,Corner of Chestnut and Cherry Streets,Marion,Smyth,Virginia,24354,May - October Saturday 8:00 AM to 12:00 PM,-81.51744,36.83263,Other,N,N,N,Y,N,Y,Y,Y,Y,Y,N,Y,Y,Y,Y,Y,Y,Y,Y,Y,Y,Y,Y,Y,N,4/26/2012 5:01:41 PM
1003786,105.5 Elkin Farmers Market,http://surry.ces.ncsu.edu/,226 North Bridge Street,Elkin,Surry,North Carolina,28621,April - September Saturday 9:00 AM to 12:00 PM,-80.850502,36.245017,Local government building grounds,N,N,Y,N,N,Y,N,Y,Y,Y,N,Y,Y,Y,Y,N,Y,Y,N,Y,Y,Y,Y,Y,N,5/21/2012 10:18:14 AM
22004959,105.8 Independence Farmers Market,http://www.independenceva.com/,Main St. & Hwy. 21,Independence,,Virginia,24348,,-81.152,36.6223,,N,N,N,N,N,N,N,N,N,N,N,N,N,N,N,N,N,N,N,N,N,N,N,N,N,2011
22001879,106.4 Grow Newberry Main Street Farmers Market,,Memorial Square,Newberry,Newberry,South Carolina,29108,,-81.5983,34.2703,,N,N,N,N,N,N,N,N,N,N,N,N,N,N,N,N,N,N,N,N,N,N,N,N,N,2009
22002110,107.6 Clintwood Farmers Market,,Main St.,Clintwood,Dickenson,Virginia,24228,,-82.4584,37.1505,,N,N,N,N,N,N,N,N,N,N,N,N,N,N,N,N,N,N,N,N,N,N,N,N,N,2009
1002943,108.7 N.C. Research Campus Farmers Market,http://www.piedmont-farmersmarket.com/the_ncrc_market,120 West Ave,Kannapolis,Cabarrus,North Carolina,28081,"January - December Thursday 3:00 PM to 6:00 PM, (Also open Saturday afternoons during the monthly Cruise In.)",-80.6258716,35.4976011,Other,Y,Y,N,N,Y,Y,Y,Y,N,Y,N,N,Y,Y,Y,N,Y,N,Y,Y,N,Y,N,N,N,5/11/2012 2:55:13 PM
1002945,108.7 Piedmont Farmers Market,http://www.piedmont-farmersmarket.com,Robinson Church Rd,Harrisburg,Cabarrus,North Carolina,28027,April - October Monday 4:00 PM to 7:00 PM,-80.65424,35.316631,,Y,Y,N,N,N,Y,N,Y,N,Y,Y,N,Y,Y,Y,N,Y,N,Y,N,N,N,Y,N,N,5/11/2012 3:02:22 PM
1002945,109.0 Piedmont Farmers Market,http://www.piedmont-farmersmarket.com,518 Winecoff School Rd,Kannapolis,Cabarrus,North Carolina,28083,June - August Tuesday 3:00 PM to 6:00 PM,-80.625572,35.444449,Other,Y,Y,N,N,Y,N,N,N,N,Y,N,N,Y,Y,Y,N,N,N,Y,N,N,N,N,N,N,5/11/2012 3:02:22 PM
1002945,109.1 Piedmont Farmers Market,http://www.piedmont-farmersmarket.com,518 Winecoff School Rd.,Concord,Cabarrus,North Carolina,28027,January - December Saturday 8:00 AM to 12:00 PM,-80.625293,35.445009,Other,N,Y,N,N,Y,Y,Y,Y,Y,Y,Y,Y,Y,Y,Y,Y,Y,Y,Y,Y,Y,Y,Y,Y,N,5/11/2012 3:02:22 PM
1004576,109.2 Dahlonega Farmers Market,http://www.dahlonegadda.org,West Main Street & Waters Street,Dahlonega,Lumpkin,Georgia,30533,May - October Saturday 8:00 AM to 1:00 PM,-83.98608,34.532086,Closed-off public street,N,N,N,N,N,Y,N,N,Y,N,N,Y,Y,Y,Y,Y,N,Y,N,Y,N,N,N,Y,N,6/1/2012 3:50:52 PM
22002014,110.8 Mint Hill Farmers Market,http://www.minthillhistory.com/market.htm,7601 Matthews Mint Hill Road,Mint Hill,Mecklenburg,North Carolina,28227,,-80.6548,35.185,,N,N,N,N,N,N,N,N,N,N,N,N,N,N,N,N,N,N,N,N,N,N,N,N,N,2009
1002978,111.2 China Grove Farmers Market,http://www.hist-society-srowan.com,308 N MainStreet,China Grove,Rowan,North Carolina,28023,May - September Friday 4:00 PM to 7:00 PM,-80.57783,35.57101,Other,N,N,N,N,N,Y,N,N,Y,Y,N,Y,Y,Y,Y,N,Y,Y,N,Y,N,Y,N,N,N,5/12/2012 7:36:03 PM
22003778,111.3 Waxhaw Farmers Market,,Hwy 16 Providence Road,Waxhaw,Union,North Carolina,28173,,-80.7525,34.9415,,N,N,N,N,N,N,N,N,N,N,N,N,N,N,N,N,N,N,N,N,N,N,N,N,N,2009
22003277,111.3 Matthews Community Farmers Market,http://www.matthewsfarmersmarket.com,N. Trade Street,Matthews,Mecklenburg,North Carolina,28105,,-80.7306,34.982,,N,N,N,N,N,N,N,N,N,N,N,N,N,N,N,N,N,N,N,N,N,N,N,N,N,2009
22002115,111.9 Richlands Farmers Market,,,Richlands,Tazewell,Virginia,24641,,-81.7976,37.0947,,N,N,N,N,N,N,N,N,N,N,N,N,N,N,N,N,N,N,N,N,N,N,N,N,N,2009
22004008,112.7 Hall County Farmers Market,http://www.hallfarmers.org,Jesse Jewell Pkwy SE and E Crescent Drive,Gainsville,Hall,Georgia,30503,,-83.7906,34.3156,,N,N,N,N,N,N,N,N,N,N,N,N,N,N,N,N,N,N,N,N,N,N,N,N,N,2009
1003112,114.9 Downtown Gainesville Market On The Square,http://www.hallfarmers.org,Main and Spring Streets on the Historic Downtown Square,Gainesville,Hall,Georgia,30501,"June - November Friday 2:30 PM to 6:30 PM, (Our goal is to provide the freshest, highest quality, homegrown produce in the area, while assisting the farmers and vendors in having a successful location to market their produce, products and crafts.)",-83.827,34.29892,,N,N,N,N,N,Y,N,Y,Y,Y,N,Y,Y,Y,Y,N,Y,Y,Y,Y,N,N,Y,N,N,5/14/2012 4:54:52 PM
22005431,115.1 Peachtree Farmers Market,,111 Peachtree Lane,Bermuda Run,Davie,North Carolina,27006,May - September Friday 4:00 PM to 8:00 PM October - November Friday 3:00 PM to 6:00 PM,-80.544627,35.929168,Other,Y,N,N,N,N,Y,Y,Y,Y,Y,N,Y,Y,Y,Y,N,Y,Y,N,Y,N,N,Y,N,N,8/16/2012 1:18:49 PM
22003663,116.0 Shacktown Farmers Market,http://www.ShacktownNC.com,2816 Shacktown Road,Yadkinville,Yadkin,North Carolina,27055,,-80.587,36.1157,,N,N,N,N,N,N,N,N,N,N,N,N,N,N,N,N,N,N,N,N,N,N,N,N,N,2009
22003307,116.1 McMinn County Farmers Market,,Highway 30,Athens,McMinn,Tennessee,37303,,-84.6116,35.4465,,N,N,N,N,N,N,N,N,N,N,N,N,N,N,N,N,N,N,N,N,N,N,N,N,N,2009
22005440,116.9 Farmington Farmers Market,http://www.farmingtoncc.org,1723 Farmington Rd,Mocksville,Davie,North Carolina,27028,May - October Saturday 8:00 AM to 1:00 PM,-80.53236,36.008918,Other,N,N,N,N,N,Y,N,Y,N,Y,N,Y,Y,Y,Y,N,N,N,N,Y,N,N,Y,N,N,8/29/2012 12:15:53 PM
22004758,117.1 City of Galax Farmers Market,,221 Main Street,Galax,,Virginia,24333,,-80.9241,36.6604,,N,N,N,N,N,N,N,N,N,N,N,N,N,N,N,N,N,N,N,N,N,N,N,N,N,2011
22003775,117.1 Salisbury-Rowan County Farmers Market,http://www.salisburyrowanfarmersmarket.com,300 South Main Street,Salisbury,Rowan,North Carolina,28144,,-80.4722,35.6656,,N,N,N,N,N,N,N,N,N,N,N,N,N,N,N,N,N,N,N,N,N,N,N,N,N,2009
22002112,117.2 Galax Downtown Farmers Market,,111 E. Grayson St.,Galax,Galax,Virginia,24333,,-80.9246,36.662,,N,N,N,N,N,N,N,N,N,N,N,N,N,N,N,N,N,N,N,N,N,N,N,N,N,2009
22003308,119.0 Morgan County Farmers Market,,USDA Service Center,Warburg,Morgan,Tennessee,37887,,-84.5863,36.1034,,N,N,N,N,N,N,N,N,N,N,N,N,N,N,N,N,N,N,N,N,N,N,N,N,N,2009
22004992,120.0 Lancaster County Farmers Market,,,Lancaster,Lancaster,South Carolina,29721,,-80.7193,34.7212,,N,N,N,N,N,N,N,N,N,N,N,N,N,N,N,N,N,N,N,N,N,N,N,N,N,2011
1004511,120.1 Dawson County Farmers Market,http://www.caes.uga.edu/extension/dawson/DawsonCountyFarmersMarket.html,298 Academy Avenue,Dawsonville,Dawson,Georgia,30534,"June - September Wednesday 7:30 AM to 10:00 AM, Saturday 7:30 AM to 10:00 AM, (Market will open Sat. June 30 and run through September.)",-84.119596,34.420216,Local government building grounds,N,N,N,N,N,N,N,N,Y,N,N,N,Y,N,N,N,N,N,N,N,N,N,N,N,N,6/1/2012 7:59:37 AM
22002011,120.7 Union County Farmers Market,,805 Skyway Drive,Monroe,Union,North Carolina,28112,,-80.5496,34.9878,,N,N,N,N,N,N,N,N,N,N,N,N,N,N,N,N,N,N,N,N,N,N,N,N,N,2009
1002882,121.2 Tazewell Farmers Market,http://www.facebook.com/tazewellfarmersmarket,106 Gratton Rd,Tazewell,Tazewell,Virginia,24651,"May - October Tuesday 3:00 PM to 7:00 PM, Saturday 8:00 AM to 12:00 PM",-81.487452,37.123764,Other,N,N,N,N,N,Y,N,Y,Y,Y,N,Y,Y,Y,Y,Y,Y,Y,N,N,Y,Y,N,N,N,5/10/2012 4:45:21 PM
21004652,121.6 Hazard-Perry County Farmers Market,,354 Perry Park Road,Hazard,Perry,Kentucky,41701,"January - December Wednesday 8:00 am to 4:00 pm, Saturday 8:00 am to 4:00 pm",-83.206,37.2741,Local government building grounds,N,N,N,N,N,Y,N,Y,Y,N,N,Y,Y,Y,N,N,N,N,Y,Y,N,N,Y,N,N,5/4/2011 4:02:18 PM
1001130,122.2 Athens Farmers Market,http://www.athensfarmersmarket.net,300 College Ave,Athens,Clarke,Georgia,30601,April - October Wednesday 4:00 PM to 7:00 PM,-83.376135,33.959513,Local government building grounds,Y,N,N,N,Y,Y,Y,N,Y,Y,N,Y,Y,Y,N,N,Y,N,Y,Y,Y,N,N,N,N,4/26/2012 6:42:20 PM
1000539,"122.3 Athens Farmers Market, LLC, Downtown",http://athensfarmersmarket.net,"City Hall, Washington & Lumpkin",Athens,Clarke,Georgia,30601,April - October Wednesday 4:00 PM to 7:00 PM,-83.3773109,33.959038,Local government building grounds,Y,N,N,N,Y,Y,Y,N,N,Y,Y,Y,Y,Y,N,N,Y,N,N,N,Y,N,N,N,N,4/25/2012 12:53:06 PM
1002415,122.6 Athens Locally Grown,http://athens.locallygrown.net,670 W. Broad Street,Athens,Clarke,Georgia,30603,"January - December Thursday 4:30 PM to 8:00 PM, (We take pre-orders all day on Monday and Tuesday through our website. Thursday is primarily for picking up those pre-orders.)",-83.383849,33.956318,Private business parking lot,N,N,N,N,Y,Y,Y,Y,Y,Y,Y,Y,Y,Y,Y,N,Y,Y,Y,Y,Y,Y,Y,Y,N,5/7/2012 1:55:31 PM
1001130,122.6 Athens Farmers Market,http://www.athensfarmersmarket.net,705 Sunset Dr.,Athens,Clarke,Georgia,30606,April - October Saturday 8:00 AM to 12:00 PM November - December Saturday 9:00 AM to 12:00 PM,-83.41338,33.96575,Other,Y,N,N,N,Y,Y,Y,Y,Y,Y,N,Y,Y,Y,Y,N,Y,Y,Y,Y,Y,Y,Y,N,N,4/26/2012 6:42:20 PM
22004281,123.3 Oglethorpe Fresh,http://oglethorpefresh.com/,"Downtown Lexington, 106 West Main Street and Yellow Brick Shell,",Lexington,Oglethorpe County,Georgia,,,-83.1112,33.8698,,N,N,N,N,N,N,N,N,N,N,N,N,N,N,N,N,N,N,N,N,N,N,N,N,N,2011
1004259,123.3 Oglethorpe Fresh Farmers Market,http://OglethorpeFresh.com,Hwy 78 and South Platt Street,Lexington,Oglethorpe,Georgia,30648,"May - October Tuesday 4:00 PM to 7:00 PM, Saturday 8:30 AM to 12:30 PM",-83.1110897,33.8693519,Other,N,N,N,N,N,Y,N,N,Y,N,N,Y,Y,Y,Y,N,Y,N,N,N,N,N,N,N,N,5/29/2012 10:06:24 AM
22002007,123.6 Downtown Farmers Market I,,Muncipale parking lot on Franklin St. from funeral home,Dobson,Surry,North Carolina,27017,,-80.498,36.2434,,N,N,N,N,N,N,N,N,N,N,N,N,N,N,N,N,N,N,N,N,N,N,N,N,N,2009
1002819,125.1 Wytheville Farmers Market,http://www.wythevillefarmersmarket.com,355 East Main Street,Wytheville,Wythe,Virginia,24382,May - October Saturday 9:00 AM to 1:00 PM,-81.0659218,36.949977,Private business parking lot,N,N,N,Y,Y,Y,N,Y,Y,Y,Y,Y,Y,Y,Y,Y,Y,Y,Y,Y,Y,Y,Y,Y,N,5/9/2012 10:12:18 PM
22003661,125.3 Ellijay Farmers Market,,at the Farm Bureau parking lot,Ellijay,,Georgia,30540,,-84.4771,34.6903,,N,N,N,N,N,N,N,N,N,N,N,N,N,N,N,N,N,N,N,N,N,N,N,N,N,2009
1002204,125.3 Spout Springs Library Farmers Market,http://webpages.charter.net/srthomas625/spoutspringslibrarymarket.html,6488 Spout Springs Road,Flowery Branch,Hall,Georgia,30542,"May - October Thursday 4:00 PM to 7:00 PM, (We are the largest farmers market in Hall County Georgia)",-83.89486,34.15223,Other,Y,N,N,N,N,Y,N,Y,Y,Y,Y,Y,Y,Y,Y,N,Y,Y,Y,N,N,Y,N,Y,N,5/3/2012 1:50:32 PM
22000889,125.3 Gilmer County Farmers Market,,Broad Street,Ellijay,Gilmer,Georgia,30540,,-84.4803,34.6935,,N,N,N,N,N,N,N,N,N,N,N,N,N,N,N,N,N,N,N,N,N,N,N,N,N,Jun 3 2010 2:12PM
22003770,125.4 Mount Airy Farmers' Market,,218 Rockford Stree,Mt. Airy,Surry,North Carolina,27030,,-80.609,36.498,,N,N,N,N,N,N,N,N,N,N,N,N,N,N,N,N,N,N,N,N,N,N,N,N,N,2009
22004103,126.0 Clay County Community Farmers Market,,Corner of Old 421 and US 421,Manchester,Clay,Kentucky,,,-83.7635,37.1367,,N,N,N,N,N,N,N,N,N,N,N,N,N,N,N,N,N,N,N,N,N,N,N,N,N,2009
22003764,126.1 Farmers Cooperative Livestock & Flea Market,,Old Hwy 64 exit out of Lexington,Lexington,Davidson,North Carolina,27292,,-80.33,35.8466,,N,N,N,N,N,N,N,N,N,N,N,N,N,N,N,N,N,N,N,N,N,N,N,N,N,2009
1001198,127.2 Southwest Virginia Farmers' Market,http://www.swvafarmersmarket.org/,497 Farmers Market Drive,Hillsville,Carroll,Virginia,24343,"January - December Monday - Sunday 8:00 AM to 5:00 PM, (During the months of April, May, June, July, August, September, October, the market will be open until 6 PM daily.)",-80.772514,36.741446,Local government building grounds,Y,N,N,Y,N,N,N,Y,N,N,N,Y,Y,Y,Y,Y,Y,Y,Y,Y,N,Y,N,Y,N,4/27/2012 8:37:41 AM
22002531,128.8 Washington Farmers Market,,111 N. Allison St,Washington,Wilkes,Georgia,,,-82.7407,33.7372,,N,N,N,N,N,N,N,N,N,N,N,N,N,N,N,N,N,N,N,N,N,N,N,N,N,2009
22004458,129.1 Oconee Farmers Market,http://www.oconeefarmersmarket.org,23 North Main Street,Watkinsville,Oconee,Georgia,30677,"April - December Saturday 8:00 AM to 1:00 PM, (From May thru August 2013 we will also operate a Tuesday 4-7pm market downtown.)",-83.4097748,33.8635033,Local government building grounds,Y,N,N,N,N,Y,Y,Y,Y,Y,N,Y,Y,Y,Y,N,Y,Y,Y,Y,Y,N,Y,Y,N,4/17/2013 12:53:40 PM
22004968,129.4 Johnston Farmers Market,,Hwy 23 and Calhoun Street,Johnston,Saluda,South Carolina,,,-81.8095,33.8249,,N,N,N,N,N,N,N,N,N,N,N,N,N,N,N,N,N,N,N,N,N,N,N,N,N,2011
22000758,130.2 Lexington Farmers Market,http://www.LexingtonNCFarmersMarket.com,Railroad Street,Lexington,Davidson,North Carolina,27292,,-80.2519,35.821,,N,N,N,N,N,N,N,N,N,N,N,N,N,N,N,N,N,N,N,N,N,N,N,N,N,May 23 2010 11:47PM
22003257,130.4 Pike County Farmers Market,,148 Trivette Drive,Pikeville,Pike,Kentucky,41501,,-82.5155,37.4822,,N,N,N,N,N,N,N,N,N,N,N,N,N,N,N,N,N,N,N,N,N,N,N,N,N,2009
21005863,130.9 Auburn Farmer's Market,http://www.cityofauburn-ga.org/,corner of Fourth Avenue and Mt. Moriah Road,Auburn,Barrow,Georgia,30011,January - December Wednesday 3:00 pm to 7:00 pm,-83.828,34.0137,Local government building grounds,N,N,N,N,N,Y,Y,Y,N,N,N,Y,Y,Y,Y,N,N,N,N,Y,N,N,Y,N,N,2/19/2012 12:03:16 PM
22001883,131.1 Saluda County Farmers Market,,City Hall Parking Lot,Ridge Spring,Saluda,South Carolina,29129,,-81.6606,33.8451,,N,N,N,N,N,N,N,N,N,N,N,N,N,N,N,N,N,N,N,N,N,N,N,N,N,2009
22002006,131.4 Stokes Farmers Market,,446 South Main Street,King,Stokes,North Carolina,27021,"May - October Wednesday 9:00 AM to 11:00 AM, Saturday 9:00 AM to 11:00 AM",-80.3618,36.273,Other,N,Y,N,Y,N,N,N,N,N,N,N,Y,Y,N,N,N,N,N,N,N,N,N,N,N,N,8/15/2012 11:48:32 AM
1000926,131.4 Bland County Farmers Market,http://www.bland.org,591 Main Street,Bland,Bland,Virginia,24315,May - October Saturday 9:00 AM to 12:00 PM,-81.11575,37.10159,Local government building grounds,N,N,N,N,N,Y,N,Y,Y,Y,N,Y,Y,Y,Y,Y,Y,Y,N,Y,N,N,Y,N,N,4/26/2012 2:18:58 PM
22001899,131.5 Grace United Methodist Church Farmers Market,,410 Harbison Boulevard,Columbia,Richland,South Carolina,29212,,-81.1496,34.0805,,N,N,N,N,N,N,N,N,N,N,N,N,N,N,N,N,N,N,N,N,N,N,N,N,N,2009
22005424,132.6 King Farmers Market,,105 Moore Road,King,Stokes,North Carolina,27021,"May - October Wednesday 11:00 AM to 1:00 PM, Saturday 11:00 AM to 1:00 PM",-80.341033,36.276501,Private business parking lot,N,Y,N,Y,N,Y,N,N,Y,N,N,Y,Y,N,N,N,Y,Y,N,Y,N,N,Y,N,N,8/15/2012 11:56:34 AM
22002587,132.6 Pageland Farmers Market,,"3062 Highway. 601, north of city",Pageland,Chesterfield,South Carolina,29727,,-80.4131,34.8096,,N,N,N,N,N,N,N,N,N,N,N,N,N,N,N,N,N,N,N,N,N,N,N,N,N,2009
1001072,133.5 Stanly County Farmers Market,http://www.albemarledowntown.com,100 Railroad St,Albemarle,Stanly,North Carolina,28001,,-80.20278,35.35027,Other,Y,Y,N,N,N,Y,Y,Y,Y,Y,N,Y,Y,Y,N,N,Y,Y,Y,Y,Y,N,Y,Y,N,4/26/2012 4:17:20 PM
22005005,133.6 Local Farmers Market at the Shoppes at the Flight Deck in Lexington,,109 Old Chapin Rd.,Lexington,Lexington,South Carolina,29072,,-81.2465,33.9878,,N,N,N,N,N,N,N,N,N,N,N,N,N,N,N,N,N,N,N,N,N,N,N,N,N,2011
22003280,133.9 Downtown City Market,http://http:/www.dsfair.com,6th & Cherry Streets,Winston Salem,Forsyth,North Carolina,27109,,-80.2476,36.1012,,N,N,N,N,N,N,N,N,N,N,N,N,N,N,N,N,N,N,N,N,N,N,N,N,N,2009
22003281,134.0 Winston Salem Retail Farmers Market,,Dixie Classic Fairgrounds,Winston-Salem,Forsyth,North Carolina,27109,,-80.2545,36.1255,,N,N,N,N,N,N,N,N,N,N,N,N,N,N,N,N,N,N,N,N,N,N,N,N,N,2009
22001913,134.1 Cumberland County Farmers Market,,Highway 70,Crossville,Cumberland,Tennessee,38557,,-84.9026,35.9677,,N,N,N,N,N,N,N,N,N,N,N,N,N,N,N,N,N,N,N,N,N,N,N,N,N,2009
22003283,134.1 Bradley County Farmers Market,,"Church Street, S.E.",Cleveland,Bradley,Tennessee,37311,,-84.8756,35.1583,,N,N,N,N,N,N,N,N,N,N,N,N,N,N,N,N,N,N,N,N,N,N,N,N,N,2009
1002557,134.2 Town of Lexington Farmers Market,http://www.lexsc.com/fm_index.htm,206 N. Church St.,Lexington,Lexington,South Carolina,29072,"May - October Saturday 9:00 AM to 1:00 PM, (Every Saturday from May 12 - October 27 )",-81.235951,33.983336,Local government building grounds,Y,N,N,N,N,Y,N,Y,Y,N,Y,Y,Y,N,N,N,N,Y,N,Y,N,Y,Y,Y,N,5/8/2012 11:43:27 AM
21003682,134.2 Cobblestone Farmer's Market,,E. Third Street and Patterson,Winston-Salem,Forsyth,North Carolina,27101,January - December Tuesday 10:00 am to 1:00 pm,-80.2413,36.0981,Private business parking lot,N,N,N,N,N,Y,Y,N,Y,N,N,Y,Y,N,Y,N,Y,N,N,Y,N,Y,Y,N,N,4/27/2011 10:15:22 AM
22001895,134.5 Ashland United Methodist Church Farmers Market,http://www.ashlandumc.com/gallery/seeds/seeds.htm,2600 Ashland Road,Columbia,Richland,South Carolina,29210,,-81.1279,34.0412,,N,N,N,N,N,N,N,N,N,N,N,N,N,N,N,N,N,N,N,N,N,N,N,N,N,2009
22003975,134.7 Lexington's Old Mill Farmers Market,,711 East Main Street,Lexington,Lexington,South Carolina,29072,,-81.2288,33.9776,,N,N,N,N,N,N,N,N,N,N,N,N,N,N,N,N,N,N,N,N,N,N,N,N,N,2009
1002266,"134.9 Bluefield, VA Farmers Market",,Walnut Street,Bluefield,Tazewell,Virginia,,May - October Friday 8:00 AM to 12:00 PM,-81.27162,37.251613,Local government building grounds,N,N,N,Y,Y,Y,N,Y,Y,Y,N,Y,Y,Y,Y,Y,Y,Y,Y,Y,Y,N,Y,N,N,5/5/2012 4:55:32 PM
1004311,135.6 london-Laurel County Farmers Market,,Main and Dixie Streets,London,Laurel,Kentucky,40741,"May - October Tuesday 8:00 AM to 3:00 PM, Thursday 8:00 AM to 3:00 PM, Saturday 7:00 AM to 2:00 PM",-84.08118,37.125406,Local government building grounds,N,N,N,N,N,Y,N,Y,Y,Y,N,Y,Y,Y,Y,N,Y,Y,Y,Y,N,Y,Y,N,N,5/29/2012 11:09:38 PM
1002091,135.8 Northeast Farmers Market,http://www.Lakecarolina.com,Lake Carolina Town Center,Columbia,Richland,South Carolina,29229,"May - October Thursday 3:00 PM to 7:00 PM, (Some vendors set up and are open for business by 2:00 PM)",-80.8965,34.1774,Other,Y,N,N,N,N,Y,Y,Y,Y,Y,Y,Y,Y,Y,N,N,Y,Y,N,Y,Y,N,Y,Y,N,5/2/2012 6:39:37 AM
22002594,136.4 Virginia Wingard United Methodist Farmers Market,,1500 Broad River Road,Columbia,Richland,South Carolina,29210,,-81.0867,34.0309,,N,N,N,N,N,N,N,N,N,N,N,N,N,N,N,N,N,N,N,N,N,N,N,N,N,2009
22000826,136.5 Suwanee Farmers Market,http://www.suwanee.com,370 Highway 23,Suwanee,Gwinnett,Georgia,30024,,-84.0664,34.0559,,N,N,N,N,N,N,N,N,N,N,N,N,N,N,N,N,N,N,N,N,N,N,N,N,N,May 28 2010 11:00AM
22005232,138.0 St. Mark United Methodist Church-Seeds of Hope,,3200 Lyles St.,Columbia,Richland,South Carolina,29201,,-81.0521,34.0242,,N,N,N,N,N,N,N,N,N,N,N,N,N,N,N,N,N,N,N,N,N,N,N,N,N,2011
1001416,138.3 Dayton Farmers Market,,Courthouse Square,Dayton,Rhea,Tennessee,37321,April - October Monday - Saturday 7:00 AM to 5:00 PM,-85.012615,35.495355,Local government building grounds,N,N,N,N,N,N,N,N,N,Y,N,N,Y,N,N,N,N,N,N,Y,N,N,N,N,N,4/30/2012 8:53:48 AM
22002723,138.4 Jefferson Farmers Market,,Highway 151,Jefferson,Chesterfield,South Carolina,29718,,-80.3824,34.6717,,N,N,N,N,N,N,N,N,N,N,N,N,N,N,N,N,N,N,N,N,N,N,N,N,N,2009
1003076,138.5 Brookwood Farmers Market,http://www.brookwoodfarmersmarket.com,Caney Road,Cumming,Forsyth,Georgia,30041,June - September Friday 4:00 PM to 7:00 PM,-84.1899215,34.1048891,Local government building grounds,Y,N,N,N,N,Y,Y,Y,N,Y,N,Y,Y,Y,Y,Y,Y,N,Y,N,Y,Y,Y,N,N,5/14/2012 3:18:29 PM
22000703,138.8 Community Farmers Market at Brookland Baptist Church,http://www.prosperityforall.org,1066 Sunset Blvd.,West Columbia,Richland,South Carolina,29169,,-81.0727,33.9971,,N,N,N,N,N,N,N,N,N,N,N,N,N,N,N,N,N,N,N,N,N,N,N,N,N,May 19 2010 11:14PM
1002313,138.9 Sandhill Farmers Market,http://www.clemson.edu/sandhill,900 Clemson Road,Columbia,Richland,South Carolina,29229,"May - November Tuesday 2:00 PM to 7:00 PM, ((Open until dusk. Last day is NOV. 20))",-80.875812,34.132215,Federal/State government building grounds,Y,Y,Y,Y,N,Y,Y,N,N,Y,Y,Y,Y,Y,Y,N,Y,Y,Y,Y,Y,Y,Y,Y,N,5/7/2012 10:56:43 AM
22005258,139.2 The Carolina Apartments-Seeds of Hope,,"3201 Meadowlard Dr., , SC",Columbia,Richland,South Carolina,29201,,-80.999,34.037,,N,N,N,N,N,N,N,N,N,N,N,N,N,N,N,N,N,N,N,N,N,N,N,N,N,2011
22001875,139.3 Ebenezer Lutheran Church Farmers Market,http://www.ebenezerlutheran.org,1301 Richland Street,Columbia,Richland,South Carolina,29201,,-81.0361,34.0112,,N,N,N,N,N,N,N,N,N,N,N,N,N,N,N,N,N,N,N,N,N,N,N,N,N,2009
22000104,139.6 Main Street Marketplace,,Corner of Hampton Street & Main Street,Columbia,Richland,South Carolina,29201,,-81.0357,34.0054,,N,N,N,N,N,N,N,N,N,N,N,N,N,N,N,N,N,N,N,N,N,N,N,N,N,Apr 16 2010 9:49AM
22001627,139.8 Washington Street United Church Farmers Market,,1401 Bull Street,Columbia,Richland,South Carolina,29201,,-81.03,34.0055,,N,N,N,N,N,N,N,N,N,N,N,N,N,N,N,N,N,N,N,N,N,N,N,N,N,2009
22001897,140.0 Trinity Episcopal Church Farmers Market,http://www.trinitysc.org,1100 Sumter Street,Columbia,Richland,South Carolina,29201,,-81.0314,34.0005,,N,N,N,N,N,N,N,N,N,N,N,N,N,N,N,N,N,N,N,N,N,N,N,N,N,2009
21004191,140.1 Draper Valley Farmer's Market,,3054 Greenbriar Road,Draper,Pulaski,Virginia,24324,January - December,-80.7422,37.0009,Private business parking lot,N,N,N,N,N,Y,Y,Y,Y,N,N,Y,Y,N,Y,N,Y,N,N,Y,N,N,Y,N,N,4/29/2011 10:12:18 PM
22003777,140.2 Thomasville Farmers Market,,21 East Guilford Street,Thomasville,Davidson,North Carolina,27360,,-80.0811,35.885,,N,N,N,N,N,N,N,N,N,N,N,N,N,N,N,N,N,N,N,N,N,N,N,N,N,2009
21001775,140.2 Norcross Whistle Stop Farmer's Market,http://www.whistlestopfarmersmarket.com,"74 Park Drive, Thrasher Park, on Buchanan Street next to the railroad tracks",Norcross,Gwinnett,Georgia,30071,January - December Tuesday 4:00 pm to 8:00 pm,-84.0235,33.9617,Local government building grounds,N,N,N,N,Y,Y,Y,Y,N,N,N,Y,Y,Y,Y,N,Y,N,N,Y,N,Y,Y,N,N,3/1/2012 11:26:23 AM
1001095,140.4 Healthy Carolina Farmers Market,http://www.sc.edu/healthycarolina/farmersmarket.html,Greene Street between Sumter and Bull Streets,Columbia,Richland,South Carolina,29208,"June - July Tuesday 9:00 AM to 1:00 PM, (Market takes place on the grassy field directly beside Greene Street and the Russell House Student Union) September - October Tuesday 10:00 AM to 2:00 PM",-81.02726,33.99696,Educational institution,Y,N,N,N,N,Y,Y,N,N,Y,Y,Y,Y,Y,N,N,Y,N,Y,N,N,Y,Y,N,N,4/26/2012 4:42:37 PM
1000975,140.5 Forest Acres Farmers Market,http://farmersintheforest.org,3400 Forest Drive,Columbia,Richland,South Carolina,29204,April - October Wednesday 3:00 PM to 7:00 PM,-80.991114,34.017985,Private business parking lot,Y,N,N,N,N,Y,N,Y,N,N,Y,N,Y,N,N,N,N,N,N,N,N,N,Y,N,N,4/26/2012 2:53:51 PM
21001727,140.5 Midland Avenue Produce Jam,,Midland Avenue,Monroe,Walton,Georgia,30655,January - December Saturday 8:30 am to 12:00 pm,-83.712,33.7963,Private business parking lot,N,N,N,N,N,Y,N,N,Y,N,N,Y,Y,Y,Y,N,N,N,N,Y,N,N,N,N,N,4/13/2011 4:14:05 PM
22001760,140.6 Pulaski Farmers Market,,Historic Train Station,Pulaski,Pulaski,Virginia,24301,,-80.7791,37.0405,,N,N,N,N,N,N,N,N,N,N,N,N,N,N,N,N,N,N,N,N,N,N,N,N,N,2009
1004410,140.7 Monroe Farmers Market,http://www.monroedowntown.com,Court Street,Monroe,Walton,Georgia,30655,May - September Saturday 8:00 AM to 1:00 PM,-83.712226,33.794333,Closed-off public street,N,N,N,N,N,N,N,Y,Y,Y,N,Y,Y,Y,Y,N,Y,Y,Y,Y,N,Y,Y,N,N,5/31/2012 10:19:32 AM
22001868,140.7 Whaley Street United Methodist Church Farmers Market,,517 Whaley Street,Columbia,Richland,South Carolina,29201,,-81.0382,33.9846,,N,N,N,N,N,N,N,N,N,N,N,N,N,N,N,N,N,N,N,N,N,N,N,N,N,2009
22000538,140.7 Jackson County Farmers Market,,365 Welchburg Egypt Road,Tyner,Jackson,Kentucky,40486,,-83.9053,37.318,,N,N,N,N,N,N,N,N,N,N,N,N,N,N,N,N,N,N,N,N,N,N,N,N,N,May 10 2010 9:15AM
22000105,140.8 All-Local Farmers Market,http://www.stateplate.org,711 Whaley St,Columbia,Richland,South Carolina,29205,,-81.0358,33.9847,,N,N,N,N,N,N,N,N,N,N,N,N,N,N,N,N,N,N,N,N,N,N,N,N,N,Apr 16 2010 5:06AM
1000951,141.1 UK Robinson Center Farmers Market,http://www2.ca.uky.edu/rcars,"3215 Quicksand Road, Intersection of Highway 15 South and Highway 1812",Jackson,Breathitt,Kentucky,41339,"May - October Tuesday 8:00 AM to 6:00 PM, Friday 8:00 AM to 6:00 PM, Saturday 8:00 AM to 2:00 PM",-83.347971,37.535287,Educational institution,Y,N,N,N,N,Y,Y,Y,Y,Y,N,Y,Y,Y,N,N,Y,Y,N,Y,N,N,Y,N,N,4/26/2012 2:37:41 PM
22002595,141.3 Wesley Memorial United Church Farmers Market,,2501 Heyward Street,Columbia,Richland,South Carolina,29205,,-81.01,33.9911,,N,N,N,N,N,N,N,N,N,N,N,N,N,N,N,N,N,N,N,N,N,N,N,N,N,2009
22001896,141.5 Unitarian Universal Fellowship Farmers Market,http://www.uu.columbiafc.uua.org,2701 Heyward Street,Columbia,Richland,South Carolina,29205,,-81.0062,33.9908,,N,N,N,N,N,N,N,N,N,N,N,N,N,N,N,N,N,N,N,N,N,N,N,N,N,2009
22001874,141.6 Shandon United Methodist Church Farmers Market,,3407 Devine Street,Columbia,Richland,South Carolina,29205,,-80.9925,33.9974,,N,N,N,N,N,N,N,N,N,N,N,N,N,N,N,N,N,N,N,N,N,N,N,N,N,2009
22000106,141.7 All-Local Farmers Market 2,http://www.localharvest.org,Rosewood market on Rosewood Drive at Maple Street,Columbia,Richland,South Carolina,,,-81.0044,33.9874,,N,N,N,N,N,N,N,N,N,N,N,N,N,N,N,N,N,N,N,N,N,N,N,N,N,Apr 16 2010 5:07AM
22005014,142.2 Lutheran Church of the Resurrection-Seeds of Hope,,3707 Moss Ave.,Columbia,Richland,South Carolina,29205,,-80.9901,33.9868,,N,N,N,N,N,N,N,N,N,N,N,N,N,N,N,N,N,N,N,N,N,N,N,N,N,2011
22004105,143.1 Somerset Farmers Market,,"4150 South Highway 27, Somerset Mall Parking Lot",Somerset,Pulaski,Kentucky,42501,,-84.5215,36.9267,,N,N,N,N,N,N,N,N,N,N,N,N,N,N,N,N,N,N,N,N,N,N,N,N,N,2009
22003760,143.1 Danbury Farmers Market,,102 Old Church Road,Danbury,Stokes,North Carolina,27016,,-80.2025,36.4097,,N,N,N,N,N,N,N,N,N,N,N,N,N,N,N,N,N,N,N,N,N,N,N,N,N,2009
22005390,143.4 Waleska Farmers Market at Reinhardt University,http://www.reinhardt.edu,7300 Reinhardt Circle,Waleska,Cherokee,Georgia,30143,May - August Thursday 4:00 PM to 7:30 PM October Thursday 4:00 PM to 7:30 PM,-84.550095,34.315752,Educational institution,Y,N,N,N,N,Y,N,Y,Y,Y,N,Y,Y,Y,N,N,N,Y,N,Y,N,N,Y,Y,N,7/17/2012 1:05:02 PM
1003460,143.8 Floyd County Farmers Market,,155 North Lake Drive,Prestonsburg,Floyd,Kentucky,41653,July - October Saturday 10:00 AM to 2:00 PM,-82.773807,37.668349,Local government building grounds,N,N,N,N,N,Y,N,Y,Y,Y,N,Y,Y,N,Y,N,Y,Y,N,Y,N,N,N,N,N,5/16/2012 11:09:49 PM
1004333,144.0 ALPHARETTA FARMERS MARKET,http://www.alpharettafarmersmarket.com,TWO SOUTH MAIN STREET,ALPHARETTA,Fulton,Georgia,30009,"April - October Saturday 8:00 AM to 12:30 PM, (DECEMBER IS CHRISTMAS MARKET ON FIRST SUNDAY OF MONTH ONLY 1PM TO 7PM) December Saturday 8:00 AM to 12:30 PM, (DECEMBER IS CHRISTMAS MARKET ON FIRST SUNDAY OF MONTH ONLY 1PM TO 7PM)",-84.2942376,34.0753519,Local government building grounds,Y,N,N,N,N,Y,Y,N,Y,Y,N,Y,Y,Y,Y,N,Y,Y,Y,Y,Y,Y,Y,Y,N,5/30/2012 12:21:59 PM
22001023,144.1 Owsley County Farm Bureau Farmers Market,,Main Street,Booneville,Owsley,Kentucky,41314,,-83.6757,37.4764,,N,N,N,N,N,N,N,N,N,N,N,N,N,N,N,N,N,N,N,N,N,N,N,N,N,2009
1000852,144.2 Certified SC Winter Farmers Market,http://agriculture.sc.gov,3483 Charleston Highway,West Columbia,Lexington,South Carolina,29172,"January - March Saturday 9:00 AM to 5:00 PM, (Other business are open 7 days a week in the Corbett Building) April - October November - December Saturday 9:00 AM to 5:00 PM, (Other business are open 7 days a week in the Corbett Building)",-81.0652553,33.9043794,Federal/State government building grounds,Y,N,N,N,N,Y,Y,Y,N,Y,N,Y,Y,Y,Y,Y,Y,N,Y,N,N,Y,Y,N,N,4/26/2012 1:49:24 PM
22005398,144.3 Canton Farmers Market,http://www.cantonhdl.com,130 E Main Street,Canton,Cherokee,Georgia,30114,"May - September Saturday 8:00 AM to 12:00 PM, (Rain or shine.)",-84.490904,34.236863,Local government building grounds,N,N,N,N,N,Y,N,Y,Y,Y,N,Y,Y,Y,Y,N,N,Y,N,Y,N,Y,Y,Y,N,7/19/2012 11:35:52 AM
1004322,144.3 Canton Farmers Market,http://www.cantonhdl.com,E Main Street and Church Street,Canton,Cherokee,Georgia,30114,"May - September Saturday 8:00 AM to 12:00 PM, (Rain or shine)",-84.49115,34.236996,Local government building grounds,Y,N,N,N,N,Y,N,Y,Y,Y,N,Y,Y,Y,Y,N,N,Y,N,Y,N,Y,Y,Y,N,5/30/2012 8:28:11 AM
1004266,144.3 South Carolina State Farmers Market,,208-A Wholesale Lane,West Columbia,Lexington,South Carolina,29172,"January - December Monday - Saturday 4:00 AM to 6:00 PM, Sunday 12:00 PM to 6:00 PM",-81.064382,33.902728,Federal/State government building grounds,Y,N,N,N,N,Y,Y,N,N,Y,Y,Y,Y,Y,Y,N,Y,Y,Y,Y,N,Y,N,Y,N,5/29/2012 10:26:08 AM
1004330,144.4 Williamson Farmers Market,http://https://www.facebook.com/pages/Williamson-Farmers-Market/164105356994406,100 East 3rd Ave.,Williamson,Mingo,West Virginia,25661,May - October Saturday 8:00 AM to 4:00 PM,-82.276762,37.672436,Private business parking lot,N,N,N,N,N,Y,N,N,N,Y,N,N,Y,Y,Y,N,N,N,N,N,N,N,N,N,N,5/30/2012 11:38:33 AM
1003624,144.4 Kershaw County Farmers Market,http://www.kcfarmersmarket.org,631 DeKalb Street,Camden,Kershaw,South Carolina,29020,April - November Saturday 8:00 AM to 12:00 PM,-80.608562,34.245747,Local government building grounds,Y,N,N,Y,N,Y,Y,Y,Y,Y,Y,Y,Y,Y,Y,N,Y,Y,Y,Y,Y,Y,Y,Y,N,5/17/2012 7:59:37 PM
1004092,145.2 Cherokee Fresh Market,http://cherokeefreshmarket.com,362 Stringer Road,Canton,Cherokee,Georgia,30115,June - August Saturday 8:30 AM to 12:00 PM,-84.44169,34.172364,"On a farm from: a barn, a greenhouse, a tent, a stand, etc",N,N,N,N,N,Y,N,Y,Y,Y,N,Y,Y,Y,Y,N,Y,Y,N,Y,N,Y,Y,Y,N,5/24/2012 9:34:19 PM
22002800,145.2 Richland County,,2440 Atlas Road,Columbia,,South Carolina,29209,,-80.9743,33.942,,N,N,N,N,N,N,N,N,N,N,N,N,N,N,N,N,N,N,N,N,N,N,N,N,N,2009
1004601,145.9 Snellville Farmers Market,http://www.snellvillefarmersmarket.com,2342 Oak Road,Snellville,Gwinnett,Georgia,30078,,-84.016057,33.8580211,Local government building grounds,Y,N,N,N,N,Y,N,Y,Y,Y,N,Y,Y,Y,Y,N,N,Y,Y,Y,N,Y,Y,N,N,6/1/2012 5:38:30 PM
22003856,146.2 Sutton Tailgate Market,,,Sutton,Braxton,West Virginia,25063,,-81.1075,37.362,,N,N,N,N,N,N,N,N,N,N,N,N,N,N,N,N,N,N,N,N,N,N,N,N,N,2009
21003501,146.4 Uptown Wadesboro Farmers Market,http://www.uptownwadesboro.com,101 South Greene Street,Wadesboro,Anson,North Carolina,28170,January - December Thursday 4:00 pm to 6:00 pm,-80.0765,34.9661,Local government building grounds,N,N,N,N,N,Y,Y,Y,Y,N,N,N,Y,Y,Y,Y,Y,N,N,Y,N,Y,N,N,N,4/25/2011 2:01:33 PM
1001614,146.6 Stuart Farmers Market,http://www.townofstuartva.com,320 Chestnut Street,Stuart,Patrick,Virginia,24171,"May - October Tuesday 3:00 PM to 6:00 PM, Friday 8:00 AM to 12:00 PM",-80.26824,36.63798,Other,Y,N,N,N,Y,Y,N,Y,Y,Y,N,Y,Y,Y,Y,N,Y,Y,N,Y,N,Y,Y,N,N,4/30/2012 1:46:54 PM
22005078,146.7 New Beginnings Baptist Church-Seeds of Hope,,9601 Caughman Rd.,Columbia,Richland,South Carolina,29209,,-80.9027,33.9615,,N,N,N,N,N,N,N,N,N,N,N,N,N,N,N,N,N,N,N,N,N,N,N,N,N,2011
1003078,147.6 Piedmont Triad Farmers Market,http://www.triadfarmersmarket.com,2914 Sandy Ridge Road,Colfax,Guilford,North Carolina,27235,January - December Monday - Sunday 7:00 AM to 6:00 PM,-79.992657,36.087691,Federal/State government building grounds,Y,Y,N,Y,Y,Y,Y,Y,Y,Y,Y,Y,Y,Y,Y,Y,Y,Y,Y,Y,Y,Y,Y,Y,Y,5/14/2012 3:32:53 PM
1000947,148.3 Anson County Farmers Market,,1736 Hwy 52 South,Wadesboro,Anson,North Carolina,28170,"June - November Wednesday 7:00 AM to 1:00 PM, Saturday 7:00 AM to 1:00 PM",-80.052567,34.940829,Local government building grounds,N,N,Y,N,N,N,N,N,N,N,N,N,Y,N,N,N,N,N,N,N,N,N,N,N,N,4/26/2012 2:36:32 PM
1001824,148.3 Lilburn Farmers' Market,http://www.lilburnfarmersmarket.org,76 Main Street,Lilburn,Gwinnett,Georgia,30047,"June - August Friday 4:00 PM to 8:00 PM, (A tasty way to start your weekend. Check www.lilburnfarmersmarket.org for updates.)",-84.134717,33.885131,Local government building grounds,Y,N,N,N,N,Y,N,N,Y,Y,N,Y,Y,Y,Y,N,Y,Y,Y,Y,N,Y,Y,N,N,4/30/2012 9:09:18 PM
1003963,148.4 Creekside Park Farmers Market,http://www.archdale-nc.gov,214 Park Drive,Archdale,Randolph,North Carolina,27263,"June - September Tuesday 7:00 AM to 12:00 PM, Saturday 7:00 AM to 12:00 PM",-79.9352093,35.8939455,Local government building grounds,N,N,N,N,N,Y,N,Y,Y,N,N,N,Y,N,Y,N,N,Y,N,Y,N,N,N,N,N,5/23/2012 9:42:26 AM
22003882,148.6 Pineville Farmers Market,,In front of Old Pineville Jr. High School,Pineville,Wyoming,West Virginia,24859,,-81.537,37.5832,,N,N,N,N,N,N,N,N,N,N,N,N,N,N,N,N,N,N,N,N,N,N,N,N,N,2009
22002925,148.7 Patrick County Farmers Market,,Courthouse Parking Lot,Stuart,Patrick,Virginia,24171,,-80.2384,36.6555,,N,N,N,N,N,N,N,N,N,N,N,N,N,N,N,N,N,N,N,N,N,N,N,N,N,2009
1003652,148.8 Aiken County Farmers Market,http://www.cityofaikensc.gov,897 Richland Avenue East,Aiken,Aiken,South Carolina,29801,"April Tuesday 7:00 AM to 2:00 PM, Thursday - Saturday 7:00 AM to 2:00 PM May - September Monday - Saturday 7:00 AM to 2:00 PM October - December Tuesday 7:00 AM to 2:00 PM, Thursday - Saturday 7:00 AM to 2:00 PM",-81.7084941,33.5568819,Local government building grounds,N,N,N,N,N,Y,Y,Y,Y,Y,N,Y,Y,Y,Y,Y,Y,Y,N,Y,N,N,Y,N,N,5/18/2012 8:32:28 AM
1004125,149.3 Riverside Farmers Market,,38 Hill Street,Roswell,Fulton,Georgia,30075,"May - September Saturday 8:00 AM to 12:00 PM, (Rain or Shine!)",-84.3605088,34.0217486,Local government building grounds,Y,Y,N,N,N,Y,Y,Y,Y,N,N,Y,Y,Y,Y,N,Y,Y,Y,N,Y,N,Y,N,N,5/25/2012 11:23:44 AM
22002225,150.4 Saturday Farmers Market on Broad,,"Macartan St., beside Health Central",Augusta,Richmond,Georgia,30901,,-81.9663,33.4729,,N,N,N,N,N,N,N,N,N,N,N,N,N,N,N,N,N,N,N,N,N,N,N,N,N,2009
1001327,150.6 Montgomery County Farmers' Market Association,http://www.mcfma.org,417 North Main Street,Troy,Montgomery,North Carolina,27371,April - November Thursday 3:30 PM to 6:30 PM,-79.89513,35.36276,Other,Y,N,N,N,N,Y,Y,Y,Y,Y,N,Y,Y,Y,Y,N,Y,Y,Y,Y,Y,Y,Y,Y,Y,4/27/2012 9:04:34 PM
1003191,151.1 Augusta State Farmer's Market,http://WWW.AGR.GEORGIA.GOV,1150 5TH STREET,AUGUSTA,Richmond,Georgia,30901,"January - December Monday - Friday 7:00 AM to 7:00 PM, Saturday 7:00 AM to 3:30 PM",-81.9641247,33.462514,Federal/State government building grounds,Y,Y,Y,N,N,Y,Y,N,N,Y,Y,Y,Y,Y,Y,N,Y,N,Y,N,Y,N,N,Y,N,5/15/2012 10:17:18 AM
22001024,151.4 Wayne County Farmers Market I,,125 West Columbia Avenue,Monticello,Wayne,Kentucky,42633,,-84.8568,36.7572,,N,N,N,N,N,N,N,N,N,N,N,N,N,N,N,N,N,N,N,N,N,N,N,N,N,2009
22002861,151.5 Mercer County Tailgate Produce Market,,Mercer County Tech. Education Center,Princeton,Mercer,West Virginia,24740,,-81.0272,37.4111,,N,N,N,N,N,N,N,N,N,N,N,N,N,N,N,N,N,N,N,N,N,N,N,N,N,2009
1002342,151.8 Main Street Woodstock Farmers Market,http://www.mainstreetwoodstock.org,8534 Main St,Woodstock,Cherokee,Georgia,30188,May - October Saturday 8:30 AM to 11:30 AM,-84.5195998,34.102056,Local government building grounds,N,N,N,N,N,Y,N,N,Y,Y,N,Y,Y,Y,Y,N,N,N,N,N,N,Y,Y,N,N,5/7/2012 11:02:32 AM
22004128,152.0 Dunwoody Green Farmers Market,http://dunwoodygreenmarket.com/,1551 Dunwoody Village Parkway,Dunwoody,,Georgia,30338,,-84.3324,33.948,,N,N,N,N,N,N,N,N,N,N,N,N,N,N,N,N,N,N,N,N,N,N,N,N,N,2009
1004131,152.3 Common Ground Farmers Market,,7741 Roswell Road,Atlanta,Fulton,Georgia,30350,April - September Wednesday 9:00 AM to 1:00 PM,-84.362538,33.964608,Local government building grounds,N,Y,N,N,N,N,N,N,N,N,N,Y,Y,N,N,N,N,Y,N,N,N,N,N,N,N,5/25/2012 11:35:00 AM
22001804,152.6 Radford Farmers Market,http://www.mainstreetradford.com,1100 block of East Main Street,Radford,Bedford,Virginia,24141,,-80.5837,37.1285,,N,N,N,N,N,N,N,N,N,N,N,N,N,N,N,N,N,N,N,N,N,N,N,N,N,2009
22005423,152.8 Green Market on Main,http://www.greenmarketonmain.com,Main Street,Tucker,DeKalb,Georgia,30084,April - October Sunday 10:00 AM to 2:00 PM,-84.2145767,33.8537066,Closed-off public street,Y,N,N,N,N,Y,Y,Y,N,Y,N,Y,Y,Y,Y,Y,Y,Y,Y,Y,Y,Y,Y,N,N,8/15/2012 11:17:30 AM
22005397,152.8 Tucker Farmers Market,http://tuckerfarmersmarket.com,2333 Main Street,Tucker,DeKalb,Georgia,30084,April - November Thursday 4:00 PM to 8:00 PM,-84.214282,33.853283,Private business parking lot,Y,N,N,N,N,Y,Y,Y,Y,Y,Y,Y,Y,Y,Y,N,Y,N,Y,Y,Y,Y,Y,N,N,7/19/2012 9:45:26 AM
1001635,153.5 Johnson County Farmers' Market,http://www.johnsonextension.com,826 F.M. Stafford Avenue,Paintsville,Johnson,Kentucky,41240,"June - September Tuesday 4:00 PM to 6:00 PM, Thursday 4:00 PM to 6:00 PM",-82.798011,37.807953,Local government building grounds,N,N,N,Y,N,N,N,Y,N,Y,N,Y,Y,N,N,N,N,Y,N,N,N,N,N,N,N,4/30/2012 2:03:37 PM
21006457,153.7 Chamblee Farmers Market,http://www.chambleefarmersmarket.com,5435 Peachtree Road,Chamblee,DeKalb,Georgia,30341,January - December Tuesday 3:00 PM to 7:00 PM,-84.2997,33.8932,Private business parking lot,N,N,N,N,N,Y,Y,N,N,N,N,Y,N,Y,Y,N,Y,N,N,Y,N,Y,N,N,N,6/16/2011 5:10:23 PM
22003755,153.9 Ashboro Downtown Farmers Market,,134 South Church Street,Asheboro,Randolph,North Carolina,28801,,-79.8175,35.7049,,N,N,N,N,N,N,N,N,N,N,N,N,N,N,N,N,N,N,N,N,N,N,N,N,N,2009
1002755,154.2 Floyd Farmers Market,http://www.sustainfloyd.org/projects/agriculture/farmers-market/,"205 South Locust St., Suite H",Floyd,Floyd,Virginia,24091,"May - October Saturday 9:00 AM to 1:00 PM, (While the market officially ends at 1:00 pm, many vendors stay later.)",-80.319929,36.910904,Private business parking lot,N,N,N,N,Y,Y,Y,Y,Y,Y,N,Y,Y,Y,Y,N,Y,Y,Y,Y,Y,Y,Y,Y,N,5/9/2012 4:40:10 PM
22001025,154.5 Wayne County Farmers Market II,,255 Rolling Hills Blvd,Monticello,Wayne,Kentucky,42633,,-84.844,36.8554,,N,N,N,N,N,N,N,N,N,N,N,N,N,N,N,N,N,N,N,N,N,N,N,N,N,2009
1004356,155.4 The Ga Farmers Market at The Village at Harmony Crossing,http://www.vharmonycrossing.com/news/farmers-market-returns-harmony-crossing,Harmony Crossing,Eatonton,Putnam,Georgia,31024,May - September Saturday 8:00 AM to 12:00 PM,-83.268173,33.423574,Other,Y,N,N,N,N,Y,Y,Y,N,Y,N,Y,Y,Y,Y,N,Y,Y,Y,Y,Y,Y,Y,Y,N,5/30/2012 3:14:42 PM
22004130,155.5 Sandy Springs Farmers Market,http://www.sandyspringsfarmersmarket.com,"235 Sandy Springs Circle NW, Parking lot of Former Target",Sandy Springs,,Georgia,30328,,-84.3838,33.9185,,N,N,N,N,N,N,N,N,N,N,N,N,N,N,N,N,N,N,N,N,N,N,N,N,N,2009
1002948,156.2 Clarkston Farmers Market,http://www.facebook.com/clarkstonfarmersmarket,3701 College Ave,Clarkston,DeKalb,Georgia,30021,"May - October Sunday 11:30 AM to 3:30 PM, (The first market will be on May 20th. From June - October, the market will be held on the last Sunday of the month.)",-84.2379283,33.8058235,Other,Y,N,N,N,Y,Y,N,Y,N,N,N,Y,Y,Y,N,N,N,N,N,N,N,Y,N,N,N,5/11/2012 3:32:52 PM
22001987,157.6 Guilford Farmers Market,,1305 Battleground Avenue,Greensboro,Guilford,North Carolina,27298,,-79.8097,36.0907,,N,N,N,N,N,N,N,N,N,N,N,N,N,N,N,N,N,N,N,N,N,N,N,N,N,2009
22001668,157.7 Town of Candor Farmers Market,,Farmers Market Road off Hwy 211,Candor,Montgomery,North Carolina,27229,,-79.7829,35.2732,,N,N,N,N,N,N,N,N,N,N,N,N,N,N,N,N,N,N,N,N,N,N,N,N,N,2009
22004097,158.4 Rockcastle County Farmers Market I,,25 North Renfo Valley (Aunt Polly House),Renfro Valley,Rockcastle,Kentucky,40473,,-84.3316,37.3879,,N,N,N,N,N,N,N,N,N,N,N,N,N,N,N,N,N,N,N,N,N,N,N,N,N,2009
1004630,158.7 Signal Mountain Farmers' Market,,2815 Anderson Pike,Signal Mountain,Hamilton,Tennessee,37377,May - October Thursday 4:00 PM to 6:30 PM,-85.322774,35.162965,Local government building grounds,N,N,N,N,N,Y,Y,Y,Y,Y,N,Y,Y,Y,Y,N,Y,Y,N,Y,N,N,Y,N,N,6/2/2012 9:53:59 AM
22003854,158.8 Logan Farmers Market II,,,Logan,Logan,West Virginia,25601,,-81.9935,37.8487,,N,N,N,N,N,N,N,N,N,N,N,N,N,N,N,N,N,N,N,N,N,N,N,N,N,2009
21001188,159.1 Greensboro Farmers' Curb Market,http://www.greensboro-nc.gov/farmersmarket,501 Yanceyville Street,Greensboro,Guilford,North Carolina,27405,"January - December Wednesday 7:00 am to 1:00 pm, Saturday 6:00 am to 12:00 pm, (Wednesday we are open May-December, Saturdays year round)",-79.7787,36.0784,Local government building grounds,N,Y,N,Y,Y,Y,Y,Y,Y,N,Y,Y,Y,Y,Y,N,Y,N,Y,Y,N,Y,Y,N,N,4/6/2011 1:06:17 PM
21003945,159.4 Farmers Market in Christiansburg - NRV Grown,http://www.nrvgrown.blogspot.com,100 Radoford Street,Christiansburg,Montgomery,Virginia,24073,"May , (Community booths and local storytellers, musicians at most Saturday sale dates) June - September October , (Community booths and local storytellers, musicians at most Saturday sale dates)",-80.4156,37.1277,Private business parking lot,N,N,N,N,N,Y,Y,Y,Y,N,N,N,Y,Y,Y,N,N,N,N,Y,N,Y,N,N,N,4/28/2011 7:00:53 PM
1002250,159.7 Main Street Farmers Market,http://mainstfarmersmarket.com,325 East Main St,Chattanooga,Hamilton,Tennessee,37408,"January - March Wednesday 4:00 PM to 5:00 PM, (Winter Hours) April - November Wednesday 4:00 PM to 6:00 PM December Wednesday 4:00 PM to 5:00 PM, (Winter Hours)",-85.3035113,35.0347171,Private business parking lot,Y,N,N,N,N,Y,Y,N,Y,Y,N,Y,Y,Y,N,N,Y,Y,Y,N,Y,N,N,N,N,5/4/2012 3:39:28 PM
21005106,159.7 Chattanooga Market,http://www.chattanoogamarket.com,1 Broad St.,Chattanooga,Hamilton,Tennessee,37402,January - December Saturday 10:00 am to 5:00 pm,-85.3108,35.055,Private business parking lot,N,N,N,N,N,Y,Y,Y,Y,N,Y,Y,Y,Y,Y,N,Y,N,N,Y,N,Y,Y,N,N,5/10/2011 9:33:35 AM
22005377,159.8 Kennesaw Farmers Market,,2753 Watts Drive,Kennesaw,Cobb,Georgia,30144,"May - October Tuesday 7:00 AM to 1:00 PM, (Rain or shine)",-84.619832,34.021293,Local government building grounds,Y,N,N,N,N,Y,Y,N,Y,Y,N,Y,Y,Y,Y,N,N,Y,Y,Y,N,N,Y,N,N,7/5/2012 4:01:58 PM
21003937,159.8 The Decatur Farmers Market,http://www.decaturfarmersmarket.com,Bullard Road,Decatur,DeKalb,Georgia,30030,"January - March Wednesday 3:00 pm to 6:00 pm April - September Wednesday 4:00 pm to 7:00 pm, (Hours change when daylight savings time begins and ends) October - December Wednesday 3:00 pm to 6:00 pm",-84.2953,33.7769,Private business parking lot,N,N,N,N,N,Y,Y,N,Y,N,N,Y,Y,Y,Y,N,Y,N,N,Y,N,Y,N,N,N,1/18/2012 3:32:22 PM
22000729,160.0 Emory Farmers Market,http://www.emory.edu/dining/emory_farmers_market.php,Cox Hall Bridge,Atlanta,DeKalb,Georgia,30322,,-84.3238,33.7925,,N,N,N,N,N,N,N,N,N,N,N,N,N,N,N,N,N,N,N,N,N,N,N,N,N,May 21 2010 11:04AM
22004000,160.1 Acworth Farmers Market,,Main and Lemon Streets,Acworth,Cobb,Georgia,,,-84.6767,34.0657,,N,N,N,N,N,N,N,N,N,N,N,N,N,N,N,N,N,N,N,N,N,N,N,N,N,2009
21003937,160.1 The Decatur Farmers Market,http://www.decaturfarmersmarket.com,,Decatur,DeKalb,Georgia,30030,"January - March Saturday 10:00 am to 1:00 pm, (Hours change when daylight savings time begins and ends) April - September Saturday 9:00 am to 1:00 pm, (Hours change when daylight savings time begins and ends) October - December Saturday 10:00 am to 1:00 pm, (Hours change when daylight savings time begins and ends)",-84.2969,33.7728,Local government building grounds,N,N,N,N,N,Y,Y,N,Y,N,N,Y,Y,Y,Y,N,Y,N,N,Y,N,Y,N,N,N,1/18/2012 3:32:22 PM
1000922,160.1 Peachtree Road Farmers Market,http://www.peachtreeroadfarmersmarket.com,2744 Peachtree Rd,Atlanta,Fulton,Georgia,30305,"April - August Saturday 8:30 AM to 12:00 PM, (In 2012 we will be open 2 special Friday nights from 4-8pm and closed on the following Saturday. June 1st & Oct 12th we will be open 4-8pm.) September - December Saturday 9:00 AM to 12:00 PM",-84.385616,33.831585,"Faith-based institution (e.g., church, mosque, synagogue, temple)",Y,Y,Y,Y,Y,Y,Y,Y,Y,Y,Y,Y,Y,Y,Y,N,Y,Y,Y,Y,Y,Y,Y,N,N,4/26/2012 2:17:33 PM
1004883,160.2 Marietta Square Farmers Market,,65 Church St,MARIETTA,Cobb,Georgia,30060,January - December,-84.549494,33.953194,Closed-off public street,Y,N,N,N,N,Y,Y,N,Y,Y,Y,Y,Y,Y,Y,N,Y,Y,Y,Y,Y,Y,Y,Y,N,6/13/2012 3:02:15 PM
21005106,160.4 Chattanooga Market,http://www.chattanoogamarket.com,1829 Carter Street,Chattanooga,Hamilton,Tennessee,37401,January - December Sunday 11:00 am to 4:00 pm,-85.3167,35.0363,Private business parking lot,N,N,N,N,N,Y,Y,Y,Y,N,Y,Y,Y,Y,Y,N,Y,N,N,Y,N,Y,Y,N,N,5/10/2011 9:33:35 AM
1004342,160.6 Battlefield Farmers Market,http://www.battlefieldfmkt.org,10052 Hwy. 27 N.,Rock Spring,Walker,Georgia,30739,"May - November Wednesday 3:00 PM to 6:00 PM, Saturday 8:00 AM to 12:00 PM",-85.2437,34.8346,Local government building grounds,N,N,N,N,Y,Y,N,Y,Y,Y,N,Y,Y,Y,Y,N,Y,Y,Y,Y,Y,Y,Y,Y,N,5/30/2012 12:52:41 PM
22000947,161.0 Morningside Farmers Market,http://www.morningsidemarket.com,1393 N. Highland Ave Atlanta GA 30306,Atlanta,Fulton,Georgia,30306,,-84.3523,33.7922,,N,N,N,N,N,N,N,N,N,N,N,N,N,N,N,N,N,N,N,N,N,N,N,N,N,Jun 7 2010 12:46PM
22004100,161.7 Rockcastle County Farmers Market II,,"Highway 150, Brodhead Fairgrounds",Brodhead,Rockcastle,Kentucky,40409,,-84.4205,37.3916,,N,N,N,N,N,N,N,N,N,N,N,N,N,N,N,N,N,N,N,N,N,N,N,N,N,2009
1004076,161.8 East Lake Farmers Market,http://www.elfmarket.org,2343 Hosea Williams Drive,atlanta,DeKalb,Georgia,30317,April - November Saturday 9:00 AM to 1:00 PM,-84.310348,33.750936,,Y,N,N,N,Y,Y,Y,Y,Y,Y,N,Y,Y,Y,Y,N,Y,Y,Y,Y,Y,Y,Y,Y,N,5/24/2012 5:56:08 PM
22005392,162.4 Green Market at Piedmont Park,,1071 Piedmont Ave NE,Atlanta,Fulton,Georgia,30309,May - December Saturday 9:00 AM to 1:00 PM,-84.378551,33.784257,Other,Y,N,N,N,N,Y,Y,Y,Y,Y,N,Y,N,Y,Y,N,Y,Y,Y,Y,Y,Y,Y,N,N,7/18/2012 11:55:59 AM
22004104,162.6 Clinton County Farmers' Market,,19 Mountainview Road,Albany,Clinton,Kentucky,,,-85.1347,36.6909,,N,N,N,N,N,N,N,N,N,N,N,N,N,N,N,N,N,N,N,N,N,N,N,N,N,2009
22004482,162.8 Tyrell county FM,,1366 Hwy64 E,Columbia,Tyrrell County,North Carolina,,,-79.6604,35.7363,,N,N,N,N,N,N,N,N,N,N,N,N,N,N,N,N,N,N,N,N,N,N,N,N,N,2011
1003925,163.0 The GROVE Farmer's Market,,"1879 Glenwood Ave, SE",Atlanta,DeKalb,Georgia,30016,"April - October Tuesday 4:00 PM to 7:00 PM, (The market is open every 1st and 3rd Tuesday 4-7 April 24th through October 1st)",-84.325641,33.738869,"Faith-based institution (e.g., church, mosque, synagogue, temple)",N,Y,Y,Y,Y,Y,N,N,N,Y,N,Y,Y,N,Y,N,Y,Y,N,N,N,Y,N,N,N,5/22/2012 3:48:10 PM
1000652,163.4 Cheraw Farmers Market,,101 Front Street,Cheraw,Chesterfield,South Carolina,29520,"May - September Tuesday 8:30 AM to 1:30 PM, Thursday 2:00 PM to 6:00 PM, Saturday 8:00 AM to 2:00 PM",-79.8803978,34.6969705,Local government building grounds,N,N,N,Y,N,N,N,N,N,N,N,N,Y,N,N,N,N,N,N,N,N,N,N,N,N,4/25/2012 3:51:12 PM
22005477,163.6 East Atlanta Village Farmers Market,http://www.farmeav.com/,561 Flat Shoals Ave,Atlanta,Fulton,Georgia,30316,April - December Thursday 4:00 PM to 8:00 PM,-84.3439631,33.7389989,,N,N,N,N,Y,Y,Y,Y,N,Y,N,Y,Y,Y,Y,N,Y,N,Y,N,Y,Y,Y,N,N,3/27/2013 1:02:29 PM
22005416,163.8 Truly Living Well,http://www.trulylivingwell.com,"Wheat Street Garden, 75 Hilliard Street, NE",Atlanta,Fulton,Georgia,30312,"January - December Friday 2:00 PM to 7:00 PM, (Wheat Street Garden is open 7 days a week for tours and recycling; Market is every Friday at 2-7 PM.)",-84.375966,33.75685,"On a farm from: a barn, a greenhouse, a tent, a stand, etc",N,N,N,N,Y,Y,N,N,Y,Y,N,Y,Y,Y,Y,N,N,Y,N,N,N,N,N,Y,N,8/9/2012 5:49:57 PM
1002114,164.0 Good Living Marketplace,http://www.hartsvilledowntown.org,"Cargill Way, between 4th and 5th Streets",Hartsville,Darlington,South Carolina,29551,January - March Saturday 11:00 AM to 3:00 PM April - November Saturday 9:00 AM to 1:00 PM December Saturday 9:00 AM to 2:00 PM,-80.071428,34.373868,Closed-off public street,N,N,N,N,N,Y,Y,Y,Y,Y,N,Y,Y,Y,Y,Y,Y,Y,Y,Y,Y,Y,Y,Y,N,5/2/2012 11:51:42 AM
1001920,164.1 Blacksburg Farmers Market,http://www.blacksburgfarmersmarket.com,170 W Roanoke St,Blacksburg,Montgomery,Virginia,24063,"January - March Saturday 10:00 AM to 2:00 PM April - October Wednesday 2:00 PM to 7:00 PM, Sunday 8:00 AM to 2:00 PM November - December Wednesday 2:00 AM to 6:00 PM, Saturday 9:00 AM to 2:00 PM",-80.41477,37.22924,Local government building grounds,N,N,N,N,Y,Y,Y,Y,Y,Y,N,Y,Y,Y,Y,N,Y,Y,N,Y,Y,Y,Y,Y,Y,5/1/2012 9:04:41 AM
22001912,164.1 Livingston-Overton County Farmers Market,,University & Spring Streetverton,Livingston,Overton,Tennessee,38570,,-85.324,36.3857,,N,N,N,N,N,N,N,N,N,N,N,N,N,N,N,N,N,N,N,N,N,N,N,N,N,2009
22003251,164.3 MERJ Clean and Green Farmers Market,,From 4-way Stop Beside Boone Tavern in Bearea,Big Hill,Madison,Kentucky,40405,,-84.2061,37.5698,,N,N,N,N,N,N,N,N,N,N,N,N,N,N,N,N,N,N,N,N,N,N,N,N,N,2009
1004800,164.5 Logan Farmers Market I,http://www.wvagriculture.org,85 Farmers Market Road,Chapmanville,Logan,West Virginia,25508,January - April Monday - Friday 9:00 AM to 4:00 PM May - December Monday - Saturday 9:00 AM to 5:00 PM,-82.01268,37.935677,Federal/State government building grounds,N,N,N,Y,N,N,N,Y,N,N,N,N,Y,Y,Y,Y,N,N,N,N,N,N,N,N,N,6/5/2012 3:09:03 PM
1003986,164.6 Midday Market @Atlanta Federal Center,http://staging.gsa.gov/portal/content/134303,61 Forsyth Street,Atlanta,Fulton,Georgia,30303,May - October Wednesday 11:00 AM to 2:00 PM,-84.3929595,33.7534749,Federal/State government building grounds,N,N,N,N,N,N,N,N,N,N,N,N,Y,Y,Y,N,N,N,Y,N,N,N,N,N,N,5/23/2012 5:07:09 PM
22004109,164.6 Estill County Farmers Market,,South Irvine Road,Irvine,Estill,Kentucky,,,-83.975,37.6874,,N,N,N,N,N,N,N,N,N,N,N,N,N,N,N,N,N,N,N,N,N,N,N,N,N,2009
22005478,164.7 Grant Park Farmers Market,http://grantparkmarket.org,600 Cherokee Avenue,Atlanta,Fulton,Georgia,30312,April - December Sunday 9:30 a.m. to 1:30 p.m.,-84.3736265,33.7387662,Other,N,N,N,N,Y,Y,Y,Y,N,Y,N,Y,Y,Y,Y,N,Y,N,Y,N,Y,Y,Y,N,N,3/27/2013 12:37:11 PM
22003272,165.0 Richmond County Farmers Market,,100 Biltmore Drive,Rockingham,Richmond,North Carolina,28379,,-79.7518,34.9166,,N,N,N,N,N,N,N,N,N,N,N,N,N,N,N,N,N,N,N,N,N,N,N,N,N,2009
22001928,165.4 White County Farmers Market,http://www.utextension.utk.edu/white,Metcalf Park,Sparta,White,Tennessee,38583,,-85.4723,35.9519,,N,N,N,N,N,N,N,N,N,N,N,N,N,N,N,N,N,N,N,N,N,N,N,N,N,2009
22004120,165.9 County Farmers Market,,"Highway 460, Intersection at Wells Hill",West Liberty,Morgan,Kentucky,41472,,-83.2718,37.9267,,N,N,N,N,N,N,N,N,N,N,N,N,N,N,N,N,N,N,N,N,N,N,N,N,N,2009
1002617,166.9 SWOOM,http://www.swoomatlanta.com,"779 Atwood Street, SW",Atlanta,Fulton,Georgia,30310,June - August Thursday 4:00 PM to 8:00 PM,-84.4296899,33.734143,Other,Y,N,N,N,Y,Y,N,N,N,Y,N,Y,Y,Y,Y,N,N,N,N,N,N,Y,N,N,N,5/8/2012 8:11:13 PM
1002775,166.9 Herb & Farm Youth Farmers Market at Atwood Community Gardens,http://herbnfarmatl.locallygrown.net,779 Atwood Street SW,Atlanta,Fulton,Georgia,30310,May - November Thursday 4:00 PM to 8:00 PM,-84.4296899,33.734143,"On a farm from: a barn, a greenhouse, a tent, a stand, etc",Y,Y,N,Y,Y,Y,N,Y,Y,Y,N,Y,Y,N,N,N,N,N,N,Y,N,Y,Y,N,N,5/9/2012 6:07:25 PM
1001386,167.1 Elko Farmers' Market,,180 Church Street,Elko,Barnwell,South Carolina,,"May - October Saturday 8:00 AM to 2:00 PM, (Closed when raining.)",-81.37869,33.38007,Other,N,Y,Y,Y,Y,Y,N,Y,Y,Y,N,Y,Y,Y,Y,N,N,Y,Y,Y,N,Y,Y,Y,N,4/29/2012 12:28:05 PM
1003495,167.1 Berea Farmer's Market,http://www.bereafarmersmarket.org,305 Estill St,Berea,Madison,Kentucky,40403,"April - November Tuesday 4:30 PM to 7:00 PM, Saturday 8:00 AM to 12:00 PM",-84.2873425,37.5735794,Healthcare Institution,Y,Y,N,N,Y,Y,N,Y,Y,Y,N,Y,Y,Y,Y,N,Y,Y,N,Y,Y,Y,Y,N,N,5/17/2012 9:38:07 AM
22001904,167.3 Calhoun County Farmers Market,,Indepedence Street,St. Matthews,Calhoun,South Carolina,29135,,-80.7799,33.6647,,N,N,N,N,N,N,N,N,N,N,N,N,N,N,N,N,N,N,N,N,N,N,N,N,N,2009
22005434,167.6 Mableton Farmers Market,http://www.mableton.org/FarmersMarket.html,5239 Floyd Road,Mableton,Cobb,Georgia,30126,May - September Thursday 8:30AM to 123PM,-84.5758331,33.8261859,Local government building grounds,N,N,N,Y,N,Y,Y,N,N,Y,N,N,Y,Y,Y,N,N,N,N,N,N,N,N,N,N,8/17/2012 3:45:59 PM
21003073,167.7 Martinsville Farmers Market,http://www.MartinsvilleUptown.net,corner of Moss and Main streets,Martinsville,Henry,Virginia,24112,January - December,-79.8751,36.6923,Local government building grounds,N,N,N,Y,N,Y,Y,Y,Y,N,Y,Y,Y,Y,Y,N,Y,N,Y,Y,N,Y,Y,N,N,4/21/2011 8:12:46 AM
22001759,167.7 Uptown Martinsville Farmers Market,http://www.martinsvilleuptown.net,Moss St.,Martinsville,Martinsville,Virginia,24114,,-79.8745,36.6921,,N,N,N,N,N,N,N,N,N,N,N,N,N,N,N,N,N,N,N,N,N,N,N,N,N,2009
1002058,167.8 Shawsville Farmers' Market,http://ShawsvilleFarmersMarket.webs.com,267 Alleghany Spring Rd.,Shawsville,Montgomery,Virginia,24162,"May - October Saturday 9:00 AM to 12:00 PM, (Extended hours for EastMont Garden Day (May 5, 2012), EastMont Tomato Festival (Aug. 18, 2012) and Fall Harvest Festival (Oct. 6, 2012).)",-80.2558,37.167,Other,N,N,N,N,N,Y,N,Y,Y,Y,N,Y,Y,Y,N,N,N,Y,N,Y,N,N,Y,N,N,5/1/2012 5:24:43 PM
1001825,168.9 Rockingham County Farmers Market,,1944 Wentworth Street,Reidsville,Rockingham,North Carolina,27320,"May - August Wednesday 3:00 PM to 6:00 PM, Saturday 8:00 AM to 1:00 PM September - October Saturday 8:00 AM to 1:00 PM",-79.695455,36.381357,Federal/State government building grounds,Y,N,Y,N,Y,Y,Y,Y,Y,Y,N,Y,Y,Y,Y,N,Y,Y,Y,Y,N,Y,Y,Y,Y,4/30/2012 9:13:33 PM
22000566,169.4 Russell Co Farmer's Market,,Corner of 127 and Lakeway Drive,Russell Springs,Russell,Kentucky,42642,,-85.0649,36.9806,,N,N,N,N,N,N,N,N,N,N,N,N,N,N,N,N,N,N,N,N,N,N,N,N,N,May 10 2010 10:12PM
22003338,169.5 Cookeville Farmers Market,,Downtown Center,Cookeville,Putnam,Tennessee,38503,,-85.5016,36.1628,,N,N,N,N,N,N,N,N,N,N,N,N,N,N,N,N,N,N,N,N,N,N,N,N,N,2009
1000917,169.7 Paulding County Farm Bureau Farmers Market,http://pauldingfarmers.blogspot.com,2515 Dallas/Marietta Hwy.,Dallas,Paulding,Georgia,30157,"April - November Friday 3:00 PM to 7:00 PM, (During peak harvest, May through July, we may also open on Tuesdays. Email for information.)",-84.74896,33.92598,Private business parking lot,Y,N,N,N,N,Y,Y,Y,Y,Y,N,Y,Y,Y,Y,N,Y,Y,Y,Y,Y,Y,Y,N,N,4/26/2012 2:15:42 PM
22003886,169.9 Summers Tailgate Market,,Old Otter Holler Farm,Hinton,Summers,West Virginia,24962,,-80.8878,37.6568,,N,N,N,N,N,N,N,N,N,N,N,N,N,N,N,N,N,N,N,N,N,N,N,N,N,2009
22003270,169.9 Reidsville Downtown Farmers Market,,230 W. Morehead Street,Reidsville,Rockingham,North Carolina,27320,,-79.6638,36.3478,,N,N,N,N,N,N,N,N,N,N,N,N,N,N,N,N,N,N,N,N,N,N,N,N,N,2009
1003039,170.1 Market Square,http://www.ci.reidsville.nc.us,303 S. Scales St.,Reidsville,Rockingham,North Carolina,27320,"April - October Tuesday 6:00 AM to 12:00 PM, Thursday 6:00 AM to 12:00 PM, Saturday 6:00 AM to 12:00 PM",-79.66425,36.3588,,N,N,N,N,N,Y,N,Y,N,Y,N,N,Y,Y,Y,N,Y,N,N,N,N,N,Y,N,N,5/14/2012 1:47:42 PM
1000811,170.2 Powder Springs Farmers' Market,http://www.cityofpowdersprings.org/index.aspx?nid=482,4488 Pineview Drive,Powder Springs,Cobb,Georgia,30127,June - September Thursday 4:00 PM to 8:00 PM,-84.684956,33.859975,Local government building grounds,Y,N,N,N,N,Y,Y,Y,Y,Y,N,Y,Y,Y,Y,N,Y,N,N,Y,Y,Y,Y,N,N,4/26/2012 1:33:11 PM
22004825,170.8 Downtown Sumter Farmers Market,http://www.downtownsumter.com,Main St. & Liberty St.,Sumter,Sumter,South Carolina,29151,,-80.3417,33.9204,,N,N,N,N,N,N,N,N,N,N,N,N,N,N,N,N,N,N,N,N,N,N,N,N,N,2011
22003779,171.2 Blackville Farmers Market,,Main Street,Blackville,Barnwell,South Carolina,29817,,-81.2708,33.355,,N,N,N,N,N,N,N,N,N,N,N,N,N,N,N,N,N,N,N,N,N,N,N,N,N,2009
21002910,171.2 The Garden Center,,,Louisa,Lawrence,Kentucky,41230,January - December Tuesday - Saturday 9:00 am to 5:00 pm,-82.7347,38.0679,In a roadside stand,N,N,N,N,N,N,Y,N,Y,N,N,Y,Y,Y,Y,N,N,N,N,Y,N,N,Y,N,N,2/21/2012 12:23:21 PM
22001244,171.3 Sumter County Farmers Market,,700 West Liberty Street,Sumter,Sumter,South Carolina,29153,,-80.3293,33.9207,,N,N,N,N,N,N,N,N,N,N,N,N,N,N,N,N,N,N,N,N,N,N,N,N,N,2009
22002596,171.4 South Sumter Farmers Market,,327 Manning Avenue,Sumter,Sumter,South Carolina,29151,,-80.3409,33.9082,,N,N,N,N,N,N,N,N,N,N,N,N,N,N,N,N,N,N,N,N,N,N,N,N,N,2009
1001334,172.0 A Kentucky Farmer's Market LLC,,2349 S Hwy 127,Russell Springs,Russell,Kentucky,42642,"June - October Tuesday 7:00 AM to 4:00 PM, Friday 7:00 AM to 4:00 PM, Saturday 7:00 AM to 2:00 PM, (7 am until sellout or 4pm)",-85.076795,37.032535,Private business parking lot,N,Y,N,Y,N,N,N,Y,N,N,N,N,Y,Y,Y,N,N,N,N,N,N,N,N,N,N,4/27/2012 11:26:57 PM
22005416,172.1 Truly Living Well,http://www.trulylivingwell.com,3353 Washington Road,East Point,Fulton,Georgia,30344,"January - December Wednesday 2:00 PM to 7:00 PM, (Admin office is open 9-5 M-F. Market is held every Wednesday, 2-7 pm)",-84.468126,33.664491,"On a farm from: a barn, a greenhouse, a tent, a stand, etc",N,N,N,N,Y,Y,N,N,N,N,N,Y,Y,N,Y,N,N,N,N,N,N,N,N,N,N,8/9/2012 5:49:57 PM
22002219,172.3 Atlanta State Farmers Market,,16 Forest Parkway,Forest Park,Clayton,Georgia,30927,,-84.4009,33.6168,,N,N,N,N,N,N,N,N,N,N,N,N,N,N,N,N,N,N,N,N,N,N,N,N,N,2009
22005163,"172.9 Right Choice, Fresh Start Farmer's Market",,3300 Magnolia Street,Orangeburg,Orangeburg,South Carolina,29115,,-80.8378,33.5306,,N,N,N,N,N,N,N,N,N,N,N,N,N,N,N,N,N,N,N,N,N,N,N,N,N,2011
1004750,174.0 Trenton Farmers Market,,"Veterans Park, Downtown",Trenton,Dade,Georgia,30752,May - November Saturday 9:00 AM to 12:00 PM,-85.509544,34.874892,Other,N,N,N,N,N,Y,N,Y,Y,Y,N,Y,Y,Y,Y,N,Y,N,N,N,N,N,Y,N,N,6/5/2012 8:53:35 AM
21004418,174.1 Lawrence County Farmers Market,,249 Industrial Park Road,Louisa,Lawrence,Kentucky,41320,"January - December Tuesday 9:00 am to 12:00 pm, Thursday 9:00 am to 12:00 pm, Saturday 9:00 am to 12:00 pm",-82.6032,38.1144,Private business parking lot,N,Y,N,Y,N,Y,Y,N,Y,N,N,Y,Y,N,N,N,N,N,N,Y,N,Y,Y,N,N,5/3/2011 9:47:22 AM
1004346,174.4 Ridge Ferry Park Farmer's Market,http://rfpra.com/spec-farmers.htm,282 Riverside Pkwy,Rome,Floyd,Georgia,30161,"June - October Wednesday 7:00 AM to 10:00 AM, Saturday 7:00 AM to 10:00 AM, (Open June 2 - Oct 6)",-85.1685459,34.2594286,Local government building grounds,N,N,N,N,N,Y,N,Y,Y,N,N,N,Y,Y,Y,Y,N,N,N,N,N,Y,N,N,N,5/30/2012 1:22:41 PM
22004110,174.5 Powell County Farmers Market,,Highway 15,Clay City,Powell,Kentucky,40312,,-83.9343,37.8648,,N,N,N,N,N,N,N,N,N,N,N,N,N,N,N,N,N,N,N,N,N,N,N,N,N,2009
22001876,175.3 Orangeburg County Farmers Market,,Hwy. 301 South,Orangeburg,Orangeburg,South Carolina,29115,,-80.8532,33.481,,N,N,N,N,N,N,N,N,N,N,N,N,N,N,N,N,N,N,N,N,N,N,N,N,N,2009
1002511,176.1 Sandhills Farmers Green Market,http://sandhillsfarmersmarket.com,1 Village Green Rd West,Pinehurst,Moore,North Carolina,28374,April - September Wednesday 3:00 PM to 6:00 PM,-79.468467,35.194695,Other,Y,N,N,N,N,Y,Y,Y,Y,Y,N,Y,Y,Y,N,N,Y,Y,N,Y,Y,N,Y,N,N,3/17/2013 9:21:31 AM
1000649,176.1 Marlboro County Farmers Market,,500 Broad Street,Bennettsville,Marlboro,South Carolina,29512,"April - September Tuesday 1:00 PM to 7:00 PM, Thursday 1:00 PM to 7:00 PM, Saturday 7:00 AM to 1:00 PM October - December Saturday 7:00 AM to 1:00 PM",-79.6812,34.61099,Local government building grounds,N,N,N,Y,N,N,N,N,N,N,N,N,Y,N,N,N,N,N,N,N,N,N,N,N,N,4/25/2012 3:21:36 PM
1002511,176.1 Sandhills Farmers Green Market,http://sandhillsfarmersmarket.com,Rattlesnake Trail/Woods Rd,Pinehurst,Moore,North Carolina,28374,April - September Saturday 10:00 AM to 1:00 PM,-79.464819,35.205461,Other,Y,N,N,N,N,Y,Y,Y,Y,Y,N,Y,Y,Y,N,N,Y,Y,N,Y,Y,N,Y,N,N,3/17/2013 9:21:31 AM
22004304,176.4 Moore County Farmers Market,,"170 Memorial Drive, Pinehurst; Morganton Road, Southern Pines",Pinehurst,Moore County,North Carolina,,,-79.4601,35.2072,,N,N,N,N,N,N,N,N,N,N,N,N,N,N,N,N,N,N,N,N,N,N,N,N,N,2011
1004623,177.0 Lincoln County Farmers Market,,Hwy 27 south,Stanford,Lincoln,Kentucky,40484,"June - October Monday 8:00 AM to 12:00 PM, Wednesday 8:00 AM to 12:00 PM, Friday 8:00 AM to 12:00 PM",-84.660108,37.519138,Local government building grounds,Y,Y,Y,Y,N,Y,N,Y,N,Y,N,Y,Y,Y,Y,N,N,N,N,Y,N,N,Y,N,N,6/1/2012 10:43:48 PM
1004845,177.2 Monroe Farm Market,http://www.monroefarmmarket.com,104 Health Center Drive,Union,Monroe,West Virginia,24983,May - October Thursday 12:30 PM to 4:30 PM,-80.546715,37.589315,Other,N,Y,Y,Y,Y,Y,N,Y,Y,Y,Y,Y,Y,Y,Y,Y,Y,Y,Y,Y,Y,N,Y,N,N,6/6/2012 2:16:40 AM
22000271,177.3 Rocky Mount Farmers' Market,http://www.rockymountva.org,Franklin Street,Rocky Mount,Franklin,Virginia,24151,,-79.8921,36.9993,,N,N,N,N,N,N,N,N,N,N,N,N,N,N,N,N,N,N,N,N,N,N,N,N,N,Apr 19 2010 10:01AM
22004108,177.3 Elliott County Farmers Market,,Elliott County Extension Office,Sandy Hook,Elliott,Kentucky,,,-83.1052,38.1232,,N,N,N,N,N,N,N,N,N,N,N,N,N,N,N,N,N,N,N,N,N,N,N,N,N,2009
22003767,177.5 Moore County Farmers Market,,Morganton Road sports complex lot,Carthage,,North Carolina,Moore,,-79.417,35.346,,N,N,N,N,N,N,N,N,N,N,N,N,N,N,N,N,N,N,N,N,N,N,N,N,N,2009
22003179,177.6 Old Depot Farmers Market,,Old Depot on Depot Street,Stanford,Lincoln,Kentucky,40484,,-84.6626,37.5292,,N,N,N,N,N,N,N,N,N,N,N,N,N,N,N,N,N,N,N,N,N,N,N,N,N,2009
1004353,177.8 Milledgeville Marketplace Farmers' Market,http://www.milledgevillemarketplace.com,222 East Hancock Street,Milledgeville,Baldwin,Georgia,31061,April - October Tuesday 4:00 PM to 7:00 PM,-83.224579,33.081869,Local government building grounds,N,N,N,N,N,Y,Y,Y,Y,Y,Y,Y,Y,Y,Y,N,Y,N,N,N,N,N,Y,N,N,5/30/2012 2:33:41 PM
1003649,177.9 Fall Line Farmers Market,http://www.facebook.com/FallLineFarmersMarket?ref=tn_tnmn,210 South Wayne Street,Milledgeville,Baldwin,Georgia,31061,January - December Saturday 9:00 AM to 12:00 PM,-83.226027,33.079496,"Faith-based institution (e.g., church, mosque, synagogue, temple)",Y,N,Y,N,Y,Y,Y,N,Y,Y,N,Y,Y,Y,Y,N,Y,N,N,Y,Y,Y,N,N,N,5/18/2012 7:24:30 AM
22001993,178.1 Alamance County Farmers Market,,200 S. Main St.,Burlington,Alamance,North Carolina,27215,,-79.4357,36.0943,,N,N,N,N,N,N,N,N,N,N,N,N,N,N,N,N,N,N,N,N,N,N,N,N,N,2009
1004553,178.2 Main Street Douglasville Farmer's Market,,6694 Broad St,Douglasville,Douglas,Georgia,30134,March - May Thursday 3:00 PM to 7:00 PM September - October Thursday 3:00 PM to 7:00 PM,-84.7486943,33.7511562,Local government building grounds,N,N,N,N,N,Y,Y,Y,N,Y,N,N,Y,Y,Y,N,Y,N,N,N,N,Y,Y,N,N,6/1/2012 12:06:44 PM
1004329,178.3 Downtown Douglasville 2012 Summer Farmer's Market,,6754 West Broad Street,Douglasville,Douglas,Georgia,30134,May - August Thursday 3:00 PM to 7:00 PM,-84.7507589,33.7503391,Other,N,N,N,N,N,Y,Y,Y,N,Y,N,N,Y,Y,N,N,Y,N,N,N,N,N,Y,N,N,5/30/2012 11:00:05 AM
1004553,178.3 Main Street Douglasville Farmer's Market,,6754 Broad St,Dougalsville,Douglas,Georgia,30134,June - August Thursday 3:00 PM to 7:00 PM,-84.7507,33.7502,Local government building grounds,N,N,N,N,N,Y,Y,Y,Y,Y,N,N,Y,Y,Y,N,Y,N,N,N,N,Y,Y,N,N,6/1/2012 12:06:44 PM
22003773,178.5 North Star Farmers Market,,Located at Ruffin-Mayfield exit to Mayfield to Service Road,Ruffin,Rockingham,North Carolina,27326,,-79.5435,36.4561,,N,N,N,N,N,N,N,N,N,N,N,N,N,N,N,N,N,N,N,N,N,N,N,N,N,2009
22000581,179.2 Garrard County Farmers Market,,302 Stamfprd Street,Lancaster,Garrard,Kentucky,40444,,-84.5787,37.6159,,N,N,N,N,N,N,N,N,N,N,N,N,N,N,N,N,N,N,N,N,N,N,N,N,N,May 11 2010 5:00PM
21005876,180.6 10:10 Farmers Market,http://www.1010farmersmarket.com,5960 Stewart Parkway,Douglasville,Douglas,Georgia,30135,January - February Monday 2:00 AM to 2:00 PM,-84.7689,33.7196,Healthcare Institution,Y,N,N,N,N,N,N,N,N,N,N,N,N,Y,N,N,N,N,N,N,N,N,N,N,N,7/18/2012 1:51:08 PM
22002021,180.7 Warren County Farmers Market,,City Parking Lot behind Main Street,McMinniville,Warren,Tennessee,37110,,-85.7724,35.6869,,N,N,N,N,N,N,N,N,N,N,N,N,N,N,N,N,N,N,N,N,N,N,N,N,N,2009
1001633,181.3 Pee Dee State Farmers Market,http://pdfarmersmarket.sc.gov,2513 West Lucas Street,Florence,Florence,South Carolina,29501,January - December Monday - Saturday 8:00 AM to 6:00 PM,-79.814,34.2417,Federal/State government building grounds,Y,Y,Y,Y,Y,Y,Y,N,N,Y,Y,Y,Y,Y,Y,Y,Y,Y,Y,Y,N,Y,Y,Y,Y,4/30/2012 2:03:23 PM
21001883,181.5 Wayne County Farmers Market Association,,"3100 Norfolk Ave., Wayne, WV 25570",Wayne,Wayne,West Virginia,25570,January - December,-82.4423,38.2202,Local government building grounds,N,N,N,N,N,Y,N,N,N,N,N,Y,Y,Y,Y,N,N,N,N,Y,N,N,N,N,N,4/14/2011 9:38:44 AM
22002592,181.6 Elloree Farmers Market,,Cleveland & Railroad Avenues,Elloree,Orangeburg,South Carolina,29431,,-80.5745,33.5332,,N,N,N,N,N,N,N,N,N,N,N,N,N,N,N,N,N,N,N,N,N,N,N,N,N,2009
1002737,181.8 Salem Farmers Market,http://www.salemva.gov,3 East Main Street,Salem,Roanoke,Virginia,24153,"January - December Monday - Saturday 7:00 AM to 4:00 PM, (The market is open dawn to dusk, based upon vendors discretion. Saturday is the busiest day for the market.)",-80.058595,37.293176,Local government building grounds,Y,N,N,N,Y,Y,Y,N,Y,Y,N,Y,Y,Y,Y,N,Y,Y,N,Y,Y,Y,Y,N,N,5/9/2012 3:24:15 PM
1003891,182.1 Fayette County Farmers Market,http://www.facebook.com/fayettecountyfarmersmarket,138 E Main St,Oak Hill,Fayette,West Virginia,25901,May - October Thursday 4:00 PM to 7:00 PM,-81.143239,37.975361,Private business parking lot,N,Y,Y,Y,Y,Y,N,N,Y,Y,N,Y,Y,Y,Y,N,Y,Y,N,Y,Y,Y,N,Y,N,5/22/2012 1:06:52 PM
22001618,183.6 Downtown Farmers Market II,,Corner of Church & Main St.,Laurinburg,Ruterford,North Carolina,28353,,-79.4628,34.7742,,N,N,N,N,N,N,N,N,N,N,N,N,N,N,N,N,N,N,N,N,N,N,N,N,N,2009
1003005,183.8 Catawba Valley Farmers Market,,4965 Catawba Creek Road,Catawba,Roanoke,Virginia,24070,May - October Thursday 3:30 PM to 7:00 PM,-80.1064449,37.383009,Other,N,N,N,N,N,Y,Y,Y,Y,Y,N,Y,Y,Y,N,N,Y,N,N,Y,Y,Y,Y,N,N,5/14/2012 10:37:18 AM
22004906,184.1 Grandin Village Community Market,,1319 Grandin Road,Roanoke,,Virginia,24015,,-79.9771,37.2656,,N,N,N,N,N,N,N,N,N,N,N,N,N,N,N,N,N,N,N,N,N,N,N,N,N,2011
22004462,184.8 AdairCo Farmers Market,,"409 Fairground Street, Adair County co-op ext service parking lot",Columbia,Adair County,Kentucky,,,-85.297,37.1043,,N,N,N,N,N,N,N,N,N,N,N,N,N,N,N,N,N,N,N,N,N,N,N,N,N,2011
22004096,185.3 Rowan County Farmers Market,,City Park (corner of US 60 and Bridge Street),Morehead,Rowan,Kentucky,40351,,-83.4326,38.1823,,N,N,N,N,N,N,N,N,N,N,N,N,N,N,N,N,N,N,N,N,N,N,N,N,N,2009
22005036,185.3 MENTONE FARMERS MARKET,,6139 Alabama 117,MENTONE,DEKALB,Alabama,35984,,-85.589,34.5791,,N,N,N,N,N,N,N,N,N,N,N,N,N,N,N,N,N,N,N,N,N,N,N,N,N,2011
22004270,185.6 Dekalb Farmer's Market,,205 Bryant St,Smithville,DeKalb,Tennessee,37166,,-85.8328,35.9799,Local government building grounds,N,N,N,N,N,Y,Y,N,N,N,N,Y,Y,Y,Y,N,Y,N,Y,Y,N,N,Y,N,N,2/3/2012 10:48:45 AM
1004474,186.0 Market@ The Mill,,106 Temple Street,Villa Rica,Carroll,Georgia,30180,"June - October Wednesday 5:00 PM to 8:00 PM, (The Market times will be from 5pm to 8pm June and July. Aug threw September the time will be from 4 pm to 7pm)",-84.91698,33.7311509,,Y,N,N,N,N,Y,Y,Y,N,Y,N,Y,Y,Y,Y,N,N,Y,Y,Y,N,N,Y,Y,N,5/31/2012 5:52:49 PM
21001017,186.0 The Historic Roanoke City Market,http://www.downtownroanoke.org/city-market,213 Market Street,Roanoke,Roanoke,Virginia,24011,"January - December Monday - Saturday 8:00 am to 4:30 pm, Sunday 10:00 am to 3:30 pm, (Closed December 25 and January 1.)",-79.9391,37.2717,Private business parking lot,N,N,N,N,N,Y,Y,Y,Y,N,Y,Y,Y,Y,Y,N,Y,N,N,Y,N,Y,Y,N,N,1/17/2012 11:06:40 AM
1002547,186.2 Montgomery County Farmers' Market,,"Montgomery Square Shopping Center, KY 686",Mt. Sterling,Montgomery,Kentucky,40353,"June - October Wednesday 7:00 AM to 3:00 PM, Saturday 7:00 AM to 3:00 PM",-83.955288,38.045455,Private business parking lot,N,Y,N,Y,N,Y,N,Y,Y,Y,Y,Y,Y,Y,Y,N,Y,Y,N,N,N,N,N,N,N,5/8/2012 10:31:00 AM
22003629,186.6 Westlake Farmers' Market,,Intersection Booker T. Washington Hwy. & Enterprise Lane,Moneta,Bedford,Virginia,24184,,-79.7624,37.0888,,N,N,N,N,N,N,N,N,N,N,N,N,N,N,N,N,N,N,N,N,N,N,N,N,N,2/19/2012 2:25:00 PM
22003879,187.1 Lincoln County Farm Bureau Farmers Market,,,Hamlin,Licoln,West Virginia,25523,,-82.1052,38.279,,N,N,N,N,N,N,N,N,N,N,N,N,N,N,N,N,N,N,N,N,N,N,N,N,N,2009
22003757,187.2 City of Mebane Parks & Recreation Farmers Markeet,,Clay Street,Mebane,Alamance,North Carolina,27302,,-79.2717,36.0982,,N,N,N,N,N,N,N,N,N,N,N,N,N,N,N,N,N,N,N,N,N,N,N,N,N,2009
1001426,187.2 Bath County Farmers' Market,,2914 East Highway 60,Owingsville,Bath,Kentucky,40360,"June - October Tuesday 8:00 AM to 6:00 PM, Friday 8:00 AM to 6:00 PM, Saturday 8:00 AM to 2:00 PM",-83.720326,38.138877,Educational institution,N,Y,N,Y,Y,Y,N,Y,Y,Y,N,Y,Y,Y,N,N,N,N,N,N,N,N,N,N,N,4/30/2012 10:14:09 AM
22001877,187.3 Manning Farmers Market,,SC Highway 261 East,Manning,Clarendon,South Carolina,29102,,-80.2121,33.6892,,N,N,N,N,N,N,N,N,N,N,N,N,N,N,N,N,N,N,N,N,N,N,N,N,N,2009
1004848,187.4 Cypress Center Farmers' Market,http://tpruden@clarendonhealth.com,"50 E. Hospital St., Ste. 5",Manning,Clarendon,South Carolina,29102,"June - September Wednesday 6:30 AM to 9:30 AM, Thursday 4:30 PM to 7:30 PM, (These are the times and days that we will be starting with-It may change depending on the market flow.)",-80.2107613,33.687876,Healthcare Institution,N,N,N,Y,Y,N,N,Y,N,N,N,N,Y,N,N,N,N,N,N,N,N,N,N,N,N,6/6/2012 9:00:59 AM
22001012,187.7 Heart of Danville Farmers Market,,"Main Street, at Corner of 4th",Danville,,Kentucky,,,-84.774,37.6459,,N,N,N,N,N,N,N,N,N,N,N,N,N,N,N,N,N,N,N,N,N,N,N,N,N,2009
22003152,187.7 Downtown Danville Farmers Market,,Corner of Fourth and Main Streets,Danville,Boyle,Kentucky,40422,,-84.774,37.6459,,N,N,N,N,N,N,N,N,N,N,N,N,N,N,N,N,N,N,N,N,N,N,N,N,N,2009
1003891,188.1 Fayette County Farmers Market,http://www.facebook.com/fayettecountyfarmersmarket,312 N Court St,Fayetteville,Fayette,West Virginia,25840,May - November Saturday 7:30 AM to 11:30 AM,-81.104507,38.0561,Private business parking lot,Y,Y,Y,Y,Y,Y,N,N,Y,Y,N,Y,Y,Y,Y,N,Y,Y,N,Y,Y,Y,Y,Y,N,5/22/2012 1:06:52 PM
1002066,188.1 Vinton Farmers Market,http://www.vintonva.gov,204 W. Lee Ave.,Vinton,Roanoke,Virginia,24179,May - October Thursday - Saturday 8:00 AM to 3:00 PM,-79.898891,37.2803308,Local government building grounds,Y,N,N,N,Y,Y,Y,Y,Y,Y,N,Y,Y,Y,Y,N,Y,Y,N,N,Y,N,Y,Y,N,5/1/2012 6:06:34 PM
22003267,188.4 Pittsboro Farmers Market,http://www.ces.ncsu.edu/chatham/ag/SustAg/markets/geninfo,Chatham County Fairgrounds,Pittsboro,Chatham,North Carolina,27312,,-79.2055,35.7539,,N,N,N,N,N,N,N,N,N,N,N,N,N,N,N,N,N,N,N,N,N,N,N,N,N,2009
22000868,189.0 Boyle County Farmers' Market,,557 North 127 Danville Bypass at Boyle Co. Fair Grounds,Danville,Boyle,Kentucky,40422,,-84.7964,37.6561,,N,N,N,N,N,N,N,N,N,N,N,N,N,N,N,N,N,N,N,N,N,N,N,N,N,Jun 2 2010 9:35AM
22003266,189.0 Fearington Farmers Market,http://www.ces.ncsu.edu/chatham/ag/SustAg/markets/geninfo.html,Route 1 box 323 J,Pittsboro,Chatham,North Carolina,27312,,-79.1941,35.7641,,N,N,N,N,N,N,N,N,N,N,N,N,N,N,N,N,N,N,N,N,N,N,N,N,N,2009
1003962,189.8 Danville Farmers' Market,http://www.playdanvilleva.com,629 Craighead St.,Danville,Pittsylvania,Virginia,24541,"May - October Saturday 7:30 AM to 12:00 PM, (starting July 4th we will be open on wednesdays from 3pm til 6pm)",-79.385211,36.584175,Local government building grounds,N,N,N,Y,Y,Y,N,Y,Y,Y,Y,Y,Y,Y,N,N,Y,Y,N,Y,Y,Y,N,Y,N,5/23/2012 9:51:48 AM
22005417,190.0 Chatham Mills Farmers' Market,http://www.chathammillsfarmersmarket.com,480 Hillsboro St,Pittsboro,Chatham,North Carolina,27312,April - November Saturday 8:00 AM to 1:00 PM,-79.175892,35.72704,Private business parking lot,Y,N,N,N,N,Y,Y,Y,Y,Y,N,Y,Y,N,Y,N,Y,Y,N,Y,Y,N,Y,N,N,8/9/2012 5:43:45 PM
21005051,190.1 Ronceverte Farmers Market,,1ST National Bank Employees Parking Lot,Ronceverte,Greenbrier,West Virginia,24970,January - December Tuesday 9:00 am to 1:00 pm,-80.4612,37.7737,Private business parking lot,N,N,N,N,N,N,N,Y,N,N,N,Y,N,Y,Y,Y,N,N,N,Y,N,N,N,N,N,5/9/2011 1:39:31 PM
22004098,190.1 Carter County Farmers Market,,94 Fairground Drive,Grayson,Carter,Kentucky,,,-82.9037,38.332,,N,N,N,N,N,N,N,N,N,N,N,N,N,N,N,N,N,N,N,N,N,N,N,N,N,2009
22005442,190.7 Peachtree City Farmers Market,http://www.ptcfarmersmarket.org,212 Northlake Dr.,Peachtree City,Fayette,Georgia,30269,"January - December Wednesday 9:00 AM to 1:00 PM, Saturday 9:00 AM to 1:00 PM",-84.586744,33.400778,Private business parking lot,Y,N,N,N,Y,Y,Y,Y,Y,Y,N,Y,Y,Y,Y,N,Y,Y,Y,Y,Y,Y,Y,N,N,9/3/2012 3:15:36 PM
21001883,191.0 Wayne County Farmers Market Association,,"4350 5th Street Rd., Huntington, WV 25701",huntington,Wayne,West Virginia,25701,January - December,-82.4527,38.3569,Private business parking lot,N,N,N,N,N,Y,N,N,N,N,N,Y,Y,Y,Y,N,N,N,N,N,N,N,N,N,N,4/14/2011 9:38:44 AM
1004208,"191.2 Our Community Farmers' Market, Inc. - Newnan & Peachtree City",http://www.ourcommunityfarmersmarket.com,2812 Highway 54,Peachtree City,Fayette,Georgia,30269,"April - November Saturday 9:00 AM to 1:00 PM, (Rain or Shine. Opening April 27, 2013)",-84.5973157,33.3969013,Private business parking lot,Y,N,N,N,N,Y,Y,Y,Y,Y,N,Y,Y,Y,Y,N,N,Y,N,Y,N,Y,Y,Y,N,4/24/2013 9:22:07 PM
1001467,191.3 Monroe County Farmers Market,,Executive Dr.,Tompkinsville,Monroe,Kentucky,42167,"May - October Tuesday 10:00 AM to sellout, Thursday 10:00 AM to sellout, Saturday 8:00 AM to sellout, (till sold out)",-85.685998,36.7256659,Local government building grounds,N,N,N,Y,N,N,N,N,N,Y,N,N,Y,N,N,N,Y,N,N,N,N,N,N,N,N,4/30/2012 12:15:09 PM
1001510,192.2 Lewisburg Farmer's Market,,214 E. Washington St.,Lewisburg,Greenbrier,West Virginia,24901,April - November Saturday 8:30 AM to 1:00 PM,-80.443128,37.800849,Other,Y,Y,N,Y,Y,Y,N,Y,Y,Y,N,Y,Y,Y,Y,Y,Y,Y,Y,Y,Y,N,Y,Y,N,4/30/2012 12:44:41 PM
22001865,192.4 Allendale County Farmers Market,,Corner of Bay Street & US Highway 301,Allendale,Allendale,South Carolina,29810,,-81.3191,33.0044,,N,N,N,N,N,N,N,N,N,N,N,N,N,N,N,N,N,N,N,N,N,N,N,N,N,2009
22004372,192.7 EFLAND FARMERS MARKET,,off Hwy 70 between Efland Supermarket & Newbergs Automotive,Efland,Orange County,North Carolina,,,-79.169,36.0812,,N,N,N,N,N,N,N,N,N,N,N,N,N,N,N,N,N,N,N,N,N,N,N,N,N,2011
22003585,192.7 Terra Alta Farmers Market,http://www.wvfarmers.org/memberpages/gardenfreshfarmersmarket.html,Terra Alta Community Park,Terr Alta,,West Virginia,26764,,-80.5429,37.8696,,N,N,N,N,N,N,N,N,N,N,N,N,N,N,N,N,N,N,N,N,N,N,N,N,N,2009
1004365,193.6 Forsyth Farmers Market,,Jackson St. and West Morse Street,Forsyth,Monroe,Georgia,31029,May - October Friday 12:00 PM to 6:00 PM,-83.939645,33.036604,Other,N,N,N,N,N,Y,N,N,N,N,N,Y,Y,N,Y,N,N,N,N,Y,N,N,N,N,N,5/30/2012 4:01:17 PM
1002103,193.7 Botetourt Family Farms Farmers Market,http://www.facebook.com/BotetourtFarmersMarket,2557 Roanoke Rd.,Daleville,Botetourt,Virginia,24083,May - October Saturday 8:00 AM to 12:00 PM,-79.9092244,37.4213359,Private business parking lot,N,N,N,N,N,Y,N,Y,N,Y,N,Y,Y,Y,N,N,Y,N,N,Y,N,N,Y,N,N,5/2/2012 9:59:42 AM
22003872,194.7 Central City Market,http://www.centralcitymarket.com,555 West 14th Street,Huntington,Cabell,West Virginia,25704,,-82.4793,38.4111,,N,N,N,N,N,N,N,N,N,N,N,N,N,N,N,N,N,N,N,N,N,N,N,N,N,2009
1003187,194.9 Troutville Farmers' Market in the Park,http://townoftroutville.com,5340 Lee Highway,Troutville,Botetourt,Virginia,24175,,-79.87611,37.41689,Other,N,N,N,N,N,N,N,N,N,N,N,N,N,N,N,N,N,N,N,N,N,N,N,N,N,5/15/2012 9:01:19 AM
22003339,195.0 Smith County Fruit & Vegetable Association F M,,Smith County Tobacco Warehouse,South Cathage,Smith,Tennessee,37030,,-85.9491,36.2372,,N,N,N,N,N,N,N,N,N,N,N,N,N,N,N,N,N,N,N,N,N,N,N,N,N,2009
22003178,195.1 Jessamine County Farmers Market III,,Nicholasville United Methodist Church,Nicholasville,Jessamine,Kentucky,,,-84.6596,37.8587,,N,N,N,N,N,N,N,N,N,N,N,N,N,N,N,N,N,N,N,N,N,N,N,N,N,2009
22004087,195.2 Boyd County Farmers Market,,2420 Center Street,Catlettsburg,Boyd,Kentucky,,,-82.5981,38.4189,,N,N,N,N,N,N,N,N,N,N,N,N,N,N,N,N,N,N,N,N,N,N,N,N,N,2009
1001218,195.2 Mercer County Farmers Market,http://ces.ca.uky.edu/mercer/FarmersMarket,900 S. College St,Harrodsburg,Mercer,Kentucky,40330,,-84.8414639,37.7449442,,N,Y,N,Y,N,Y,N,Y,Y,Y,N,Y,Y,Y,Y,N,Y,Y,N,Y,N,Y,Y,N,N,4/27/2012 9:36:31 AM
22004086,195.7 Boyd County Farmers Market,,7404 US Route 60,Ashland,Boyd,Kentucky,,,-82.6995,38.4248,,N,N,N,N,N,N,N,N,N,N,N,N,N,N,N,N,N,N,N,N,N,N,N,N,N,2009
22000793,195.9 Carrboro Farmers' Market,http://www.carrborofarmersmarket.com,301 W. Main St. on the Town Commons,Carrboro,Orange,North Carolina,27510,,-79.0848,35.916,,N,N,N,N,N,N,N,N,N,N,N,N,N,N,N,N,N,N,N,N,N,N,N,N,N,May 26 2010 10:02AM
22002784,196.0 Dekalb County Farmers Market,,VFW Fairgrounds,Fort Payne,Dekalb,Alabama,35967,,-85.7107,34.4256,,N,N,N,N,N,N,N,N,N,N,N,N,N,N,N,N,N,N,N,N,N,N,N,N,N,2009
1001125,"196.0 Blue Grass Farmers' Market, Inc.",http://www.bluegrassfarmersmarket.org,3450 Richmond Rd.,Lexington,Fayette,Kentucky,40509,"April - October Tuesday 3:00 PM to 6:00 PM, Thursday 3:00 PM to 6:00 PM, Saturday 9:00 AM to 2:00 PM",-84.440897,37.995638,Private business parking lot,Y,Y,Y,Y,Y,Y,N,N,Y,Y,N,Y,Y,Y,Y,N,N,Y,Y,Y,N,N,Y,N,N,4/26/2012 6:20:36 PM
1001218,196.4 Mercer County Farmers Market,http://ces.ca.uky.edu/mercer/FarmersMarket,224 W Broadway Street,Harrodsburg,Mercer,Kentucky,40330,"May - October Tuesday 4:00 PM to 7:00 PM, (Opens May 26th.)",-84.8457298,37.7636642,,N,Y,N,Y,N,Y,N,Y,Y,Y,N,Y,Y,Y,Y,N,Y,Y,N,Y,N,Y,Y,N,N,4/27/2012 9:36:31 AM
1002620,196.4 The Virginia Grown Farmers Market at the Olde Dominion Agriculture Complex,,19783 US Hwy. 29 South,Chatham,Pittsylvania,Virginia,24531,May - October Saturday 8:00 AM to 12:00 PM,-79.4034881,36.8655677,Local government building grounds,N,N,N,Y,N,N,Y,N,Y,Y,N,Y,Y,Y,N,N,Y,N,N,N,Y,N,N,N,Y,5/8/2012 8:43:56 PM
22003765,196.5 Hillsborough Farmers Market II,,East Margaret Lane,Hillsborough,Orange,North Carolina,27278,,-79.0988,36.0745,,N,N,N,N,N,N,N,N,N,N,N,N,N,N,N,N,N,N,N,N,N,N,N,N,N,2009
22003774,196.5 Orange County Farmers Market at The Public Market House,http://www.orangencfarmersmarket.com,Located 144 East Margaret Lane,Hillsborough,Orange,North Carolina,27278,,-79.0978,36.074,,N,N,N,N,N,N,N,N,N,N,N,N,N,N,N,N,N,N,N,N,N,N,N,N,N,2009
1001398,196.5 Eno River Farmers Market,http://www.enoriverfarmersmarket.com,144 E. Margaret Lane,Hillsborough,Orange,North Carolina,27278,"January - March Saturday 10:00 AM to 12:00 PM, (We continue to provide a wide variety of locally grown produce, meat, eggs, and prepared foods during our winter hours.) April - October Saturday 8:00 AM to 12:00 PM, (In addition to our local, pesticide free produce, meat, eggs, prepared foods, and craft items, we have storytelling, live music, and children's activities during our spring/summer/fall hours.) November - December Saturday 10:00 AM to 12:00 PM, (We continue to provide a wide variety of locally grown produce, meat, eggs, and prepared foods during our winter hours.)",-79.097775,36.074025,Local government building grounds,N,Y,Y,Y,N,Y,Y,Y,Y,Y,N,Y,Y,Y,Y,N,Y,Y,N,Y,Y,Y,Y,Y,N,4/29/2012 8:45:15 PM
22001613,196.7 Southern Village Farmers Market,http://www.southernvillagefarmersmarket.com,Aberdeen Drive at Market Street,Chapel Hill,Orange,North Carolina,27517,May - October Thursday 3:30 PM to 6:30 PM,-79.0659,35.881018,Closed-off public street,Y,N,N,N,N,Y,Y,Y,Y,Y,Y,Y,Y,N,Y,N,Y,N,N,Y,N,Y,Y,N,Y,8/10/2012 2:46:36 PM
22001995,197.0 Hillsborough Farmers Market I,,128 N. Churton Street,Hillsborough,Orange,North Carolina,27278,,-79.0893,36.0794,,N,N,N,N,N,N,N,N,N,N,N,N,N,N,N,N,N,N,N,N,N,N,N,N,N,2009
22002230,197.3 Capitol Market,http://www.capitolmarket.net,800 Smith St.,Charleston,Kanawha,West Virginia,25301,,-81.6284,38.3525,,N,N,N,N,N,N,N,N,N,N,N,N,N,N,N,N,N,N,N,N,N,N,N,N,N,2009
22001926,197.3 Cannon County Farmers Market,,John Bragg & 70 S. Hwys.,Woodbury,Cannon,Tennessee,37190,,-86.0618,35.8233,,N,N,N,N,N,N,N,N,N,N,N,N,N,N,N,N,N,N,N,N,N,N,N,N,N,2009
22003813,198.0 North Sand Mountain Farmers Market,,24474 AL Hwy 75,Sylvania,Dekalb,Alabama,35988,,-85.8124,34.5434,,N,N,N,N,N,N,N,N,N,N,N,N,N,N,N,N,N,N,N,N,N,N,N,N,N,2009
22000695,198.1 Barnesville/Lamar County Farmers Market,,Market Street,Barnesville,Lamar,Georgia,30204,,-84.1573,33.0515,,N,N,N,N,N,N,N,N,N,N,N,N,N,N,N,N,N,N,N,N,N,N,N,N,N,May 19 2010 2:32PM
22004092,"198.2 The Farmers Market Association of Taylor County, Inc",,"Highway 210, Animal Shelter Road, Campbellsville",Campbellsville,Taylor,Kentucky,42718,,-85.377,37.3513,,N,N,N,N,N,N,N,N,N,N,N,N,N,N,N,N,N,N,N,N,N,N,N,N,N,2009
22001673,198.6 Coffe County Farmers Market,,Fort Street behind Coffee Coun,Manchester,Coffee,Tennessee,37355,,-86.0862,35.5027,,N,N,N,N,N,N,N,N,N,N,N,N,N,N,N,N,N,N,N,N,N,N,N,N,N,2009
1002582,198.7 Lake City Farmers Market,,111 Henry St.,Lake City,Florence,South Carolina,29560,April - June Thursday 2:00 PM to 7:00 PM September - October Thursday 2:00 PM to 7:00 PM,-79.75391,33.8715,Other,Y,Y,Y,Y,Y,Y,Y,Y,Y,Y,Y,Y,Y,N,Y,N,Y,Y,N,Y,Y,Y,Y,Y,N,5/8/2012 2:29:08 PM
22001074,198.8 Kings Daughters Medical Center Farmers' Market,,2201 Lexington Avenue,Ashland,Boyd,Kentucky,41101,,-82.6359,38.4704,,N,N,N,N,N,N,N,N,N,N,N,N,N,N,N,N,N,N,N,N,N,N,N,N,N,2009
1004568,199.3 Chapel Hill Farmers' Market,http://www.thechapelhillfarmersmarket.com,201 S. Estes Dr,Chapel Hill,Orange,North Carolina,27514,"January - March Saturday 9:00 AM to 12:00 PM, (Winter Hours are subject to change) April - November Tuesday 3:00 PM to 6:00 PM, Saturday 8:00 AM to 12:00 PM, (Last Tuesday Market is Tuesday before Thanksgiving. Market is CLOSED on Saturday after Thanksgiving.) December Saturday 9:00 AM to 12:00 PM, (Winter Hours are subject to change)",-79.02528,35.92774,Private business parking lot,Y,N,N,N,N,Y,Y,Y,Y,Y,N,Y,Y,Y,Y,N,Y,Y,N,Y,Y,Y,Y,Y,N,6/1/2012 2:42:44 PM
1004654,199.3 Putnam Farmers' Market,http://putnamfarmersmarket.weebly.com,Route 34,Hurricane,Putnam,West Virginia,25526,"May - October Tuesday 3:30 PM to 7:00 PM, Saturday 9:30 AM to 1:30 PM",-81.983886,38.442228,Other,N,Y,N,Y,N,Y,N,Y,N,Y,N,Y,Y,Y,N,N,Y,Y,N,Y,N,N,N,N,N,6/3/2012 2:01:12 PM
1003033,199.4 UNCP Farmers Market,,"West Office Building, Distance Education parking lot",Pembroke,Robeson,North Carolina,28372,May - October Thursday 7:00 AM to 12:00 PM,-79.205096,34.68644,Educational institution,Y,N,N,N,N,Y,N,Y,Y,Y,N,Y,Y,Y,Y,N,N,Y,Y,Y,Y,N,Y,Y,N,5/14/2012 1:28:28 PM
1004208,"199.6 Our Community Farmers' Market, Inc. - Newnan & Peachtree City",http://www.ourcommunityfarmersmarket.com,60 E Broad Street,Newnan,Coweta,Georgia,30263,"May - November Wednesday 9:00 AM to 1:00 PM, (open rain or shine. Opening May 1, 2013)",-84.7982756,33.3742306,Local government building grounds,Y,N,N,N,N,Y,Y,Y,Y,Y,N,Y,Y,Y,Y,N,Y,Y,Y,Y,N,Y,Y,Y,N,4/24/2013 9:22:07 PM
1001073,199.6 Cotton Mill Farmers Market,http://www.cottonmillfarmersmarket.org,401 Rome St.,Carrollton,Carroll,Georgia,30117,April - September Saturday 8:00 AM to 12:00 PM,-85.0742,33.5825,Private business parking lot,Y,N,N,N,Y,Y,Y,Y,Y,Y,N,Y,Y,Y,Y,N,N,Y,N,Y,N,Y,Y,N,N,4/26/2012 4:18:38 PM
1002317,199.8 The Lexington Farmers' Market,http://www.lexingtonfarmersmarket.com,398 Southland Drive,Lexington,Fayette,Kentucky,40503,"April - October Sunday 10:00 AM to 2:00 PM, (Rain or Shine. Second Sunday in April through the last Sunday in October.)",-84.526223,38.017474,Private business parking lot,N,Y,N,Y,Y,Y,Y,Y,Y,Y,N,Y,Y,Y,Y,N,Y,Y,N,Y,Y,Y,Y,N,N,5/7/2012 10:41:07 AM
